{
  "type": "FeatureCollection",
  "features": [
    {
      "type": "Feature",
      "properties": {
        "id": 1,
        "name": "Relocation Site 1 (Safe Zone)",
        "area_sqm": 4992,
        "capacity_persons": 2496,
        "elevation_m": 146.1,
        "suitability_score": 0.64
      },
      "geometry": {
        "type": "Polygon",
        "coordinates": [
          [
            [
              92.61632684013105,
              26.39274640464294
            ],
            [
              92.61832684013106,
              26.39274640464294
            ],
            [
              92.61832684013106,
              26.39474640464294
            ],
            [
              92.61632684013105,
              26.39474640464294
            ],
            [
              92.61632684013105,
              26.39274640464294
            ]
          ]
        ]
      }
    },
    {
      "type": "Feature",
      "properties": {
        "id": 2,
        "name": "Relocation Site 2 (Safe Zone)",
        "area_sqm": 4348,
        "capacity_persons": 2174,
        "elevation_m": 57.2,
        "suitability_score": 0.72
      },
      "geometry": {
        "type": "Polygon",
        "coordinates": [
          [
            [
              92.6281399089123,
              26.34363594266811
            ],
            [
              92.63013990891231,
              26.34363594266811
            ],
            [
              92.63013990891231,
              26.345635942668114
            ],
            [
              92.6281399089123,
              26.345635942668114
            ],
            [
              92.6281399089123,
              26.34363594266811
            ]
          ]
        ]
      }
    },
    {
      "type": "Feature",
      "properties": {
        "id": 3,
        "name": "Relocation Site 3 (Safe Zone)",
        "area_sqm": 8399,
        "capacity_persons": 4199,
        "elevation_m": 130.7,
        "suitability_score": 0.76
      },
      "geometry": {
        "type": "Polygon",
        "coordinates": [
          [
            [
              92.55263499237556,
              26.429301327232213
            ],
            [
              92.55463499237557,
              26.429301327232213
            ],
            [
              92.55463499237557,
              26.431301327232216
            ],
            [
              92.55263499237556,
              26.431301327232216
            ],
            [
              92.55263499237556,
              26.429301327232213
            ]
          ]
        ]
      }
    },
    {
      "type": "Feature",
      "properties": {
        "id": 4,
        "name": "Relocation Site 4 (Safe Zone)",
        "area_sqm": 5258,
        "capacity_persons": 2629,
        "elevation_m": 148.9,
        "suitability_score": 0.83
      },
      "geometry": {
        "type": "Polygon",
        "coordinates": [
          [
            [
              92.62106582618428,
              26.432856236343294
            ],
            [
              92.62306582618429,
              26.432856236343294
            ],
            [
              92.62306582618429,
              26.434856236343297
            ],
            [
              92.62106582618428,
              26.434856236343297
            ],
            [
              92.62106582618428,
              26.432856236343294
            ]
          ]
        ]
      }
    },
    {
      "type": "Feature",
      "properties": {
        "id": 5,
        "name": "Relocation Site 5 (Safe Zone)",
        "area_sqm": 3904,
        "capacity_persons": 1952,
        "elevation_m": 84.4,
        "suitability_score": 0.69
      },
      "geometry": {
        "type": "Polygon",
        "coordinates": [
          [
            [
              92.64040193657561,
              26.297143091482198
            ],
            [
              92.64240193657562,
              26.297143091482198
            ],
            [
              92.64240193657562,
              26.2991430914822
            ],
            [
              92.64040193657561,
              26.2991430914822
            ],
            [
              92.64040193657561,
              26.297143091482198
            ]
          ]
        ]
      }
    },
    {
      "type": "Feature",
      "properties": {
        "id": 6,
        "name": "Relocation Site 6 (Safe Zone)",
        "area_sqm": 6674,
        "capacity_persons": 3337,
        "elevation_m": 103.6,
        "suitability_score": 0.83
      },
      "geometry": {
        "type": "Polygon",
        "coordinates": [
          [
            [
              92.59831061238998,
              26.421810755704914
            ],
            [
              92.60031061238999,
              26.421810755704914
            ],
            [
              92.60031061238999,
              26.423810755704917
            ],
            [
              92.59831061238998,
              26.423810755704917
            ],
            [
              92.59831061238998,
              26.421810755704914
            ]
          ]
        ]
      }
    }
  ]
}