{"type": "FeatureCollection", "features": [{"type": "Feature", "geometry": {"type": "MultiPolygon", "coordinates": [[[[91.69198565804071, 26.102146948505478], [91.69158295394705, 26.102159361897353], [91.69157301795083, 26.102160579635207], [91.69128221572797, 26.101958241306367], [91.69094258397604, 26.101767468504704], [91.69058354699408, 26.101608278857253], [91.69020869567802, 26.101482264450283], [91.6898217790444, 26.101390685569832], [91.6895561865412, 26.1013404873462], [91.68920118859116, 26.10128830886933], [91.68884243459351, 26.101265136127964], [91.68848282563123, 26.10127115649971], [91.68782284589629, 26.10130905612348], [91.68750511620702, 26.101338842073133], [91.6874477889575, 26.1013484400217], [91.68744778894308, 26.101628558433642], [91.68771728352831, 26.101628558433642], [91.68771728352831, 26.10189805301888], [91.68798677811355, 26.10189805301888], [91.68798677811355, 26.102167547604118], [91.6882562726988, 26.102167547604115], [91.6882562726988, 26.10243704218935], [91.68879526186926, 26.10243704218935], [91.68879526186926, 26.102706536774587], [91.68960374562496, 26.102706536774587], [91.68960374562496, 26.10243704218935], [91.69122071313639, 26.102437042189354], [91.69122071313639, 26.102167547604115], [91.69149020772161, 26.102167547604115], [91.69149020772161, 26.10243704218935], [91.69229869147733, 26.102437042189354], [91.69229869147733, 26.102167547604115], [91.6923274074088, 26.10216754765494], [91.69198565804071, 26.102146948505478]]], [[[91.68414576698339, 26.101342597014213], [91.68376072249657, 26.1014097436099], [91.68338481165297, 26.101510614058437], [91.68302164829893, 26.10164423862734], [91.68272665505557, 26.101768335471547], [91.68245409514574, 26.10189805321508], [91.68259688640883, 26.10189805301888], [91.68259688640883, 26.102167547604115], [91.68313587557931, 26.102167547604115], [91.68313587557931, 26.10189805301888], [91.68367486474978, 26.101898053018882], [91.68367486474978, 26.101628558433642], [91.68421385392026, 26.101628558433642], [91.68421385392026, 26.101359063848406], [91.6844833485055, 26.101359063848406], [91.6844833485075, 26.10131425994948], [91.68414576698339, 26.101342597014213]]], [[[91.68205184562932, 26.102128756976672], [91.68199887386189, 26.102167547812705], [91.68205789723837, 26.102167547604115], [91.68205789724028, 26.102125151580925], [91.68205184562932, 26.102128756976672]]]]}, "properties": {"element": "way", "id": "44638717", "name": "None", "waterway": "river", "steep": "1", "overlap_area_sqm": 49932.38286379248, "sediment_choke_risk": "CRITICAL"}}, {"type": "Feature", "geometry": {"type": "MultiPolygon", "coordinates": [[[[91.6499880415953, 26.166307258890246], [91.6499880415953, 26.166037764305017], [91.64944905242483, 26.16603776430501], [91.64944905242483, 26.166307258890242], [91.6499880415953, 26.166307258890246]]], [[[91.65052703076577, 26.166307258890253], [91.6499880415953, 26.166307258890246], [91.6499880415953, 26.16657675347549], [91.65052703076577, 26.16657675347548], [91.65052703076577, 26.166307258890253]]], [[[91.65052703076577, 26.166846248060715], [91.65106601993624, 26.16684624806072], [91.65106601993624, 26.166576753475482], [91.65052703076577, 26.16657675347548], [91.65052703076577, 26.166846248060715]]], [[[91.65133551452148, 26.16711574264595], [91.65160500910672, 26.167115742645954], [91.65160500910672, 26.166846248060722], [91.65133551452148, 26.16684624806072], [91.65133551452148, 26.16711574264595]]]]}, "properties": {"element": "way", "id": "44640597", "name": "None", "waterway": "river", "steep": "1", "overlap_area_sqm": 5629.176663462811, "sediment_choke_risk": "CRITICAL"}}, {"type": "Feature", "geometry": {"type": "Polygon", "coordinates": [[[91.74306788297355, 26.159384677510744], [91.7431699342078, 26.159070772652015], [91.74324008785803, 26.158749821358228], [91.74327776845116, 26.1584244576002], [91.74329485960133, 26.158162556809547], [91.74330178076342, 26.157950144833155], [91.74330175630995, 26.157233643942973], [91.74328142654035, 26.156870203115535], [91.74322066883688, 26.1565104541301], [91.74312010055642, 26.156158050191348], [91.74243615889132, 26.15418000306937], [91.74215518974596, 26.15418000255464], [91.74215518974596, 26.15525798089558], [91.74188569516072, 26.155257980895577], [91.74188569516072, 26.155527475480813], [91.7424246843312, 26.155527475480806], [91.7424246843312, 26.155796970066053], [91.74188569516072, 26.15579697006605], [91.74188569516072, 26.15633595923652], [91.74161620057549, 26.15633595923653], [91.74161620057549, 26.15660545382175], [91.74134670599025, 26.156605453821754], [91.74134670599025, 26.158761410503637], [91.74161620057549, 26.15876141050364], [91.74161620057549, 26.159030905088876], [91.74215518974596, 26.159030905088876], [91.74215518974596, 26.159300399674116], [91.74269417891644, 26.15930039967412], [91.74269417891644, 26.159569894259352], [91.74296367350166, 26.15956989425935], [91.74296367350658, 26.15962289209592], [91.74306788297355, 26.159384677510744]], [[91.74269417891644, 26.157683432162703], [91.74296367350166, 26.1576834321627], [91.74296367350166, 26.157952926747935], [91.74269417891644, 26.157952926747935], [91.74269417891644, 26.157683432162703]]]}, "properties": {"element": "way", "id": "497502656", "name": "None", "waterway": "drain", "steep": "1", "overlap_area_sqm": 76174.39902286211, "sediment_choke_risk": "CRITICAL"}}, {"type": "Feature", "geometry": {"type": "MultiPolygon", "coordinates": [[[[91.73422967546016, 26.164151302269335], [91.73433984677412, 26.164151302208364], [91.73433984677438, 26.16441587793232], [91.73434207335224, 26.164420796795664], [91.73460934135937, 26.164420796793593], [91.73460934135937, 26.164690291378836], [91.7348788359446, 26.164690291378825], [91.7348788359446, 26.164959785964072], [91.73458604039928, 26.164959786214485], [91.73475453199651, 26.165332105785925], [91.7348362914961, 26.165498775207915], [91.7348788359446, 26.16549877513454], [91.7348788359446, 26.165229280549305], [91.73514833052982, 26.1652292805493], [91.73514833052982, 26.164959785964072], [91.73541782511506, 26.164959785964065], [91.73541782511506, 26.164420796793596], [91.73514833052982, 26.164420796793596], [91.73514833052982, 26.164151302208356], [91.7348788359446, 26.164151302208364], [91.7348788359446, 26.163881807623124], [91.73460934135937, 26.163881807623124], [91.73460934135937, 26.163073323867415], [91.73433984677412, 26.163073323867412], [91.73433984677412, 26.162534334696943], [91.73407035218888, 26.162534334696943], [91.73407035218888, 26.162264840111707], [91.73380085760365, 26.162264840111703], [91.73380085760365, 26.161995345526474], [91.73370843058039, 26.161995345756367], [91.73370210097369, 26.162168288424578], [91.73372767066786, 26.162521917736235], [91.73379152721472, 26.162871582491388], [91.7338930559749, 26.163213915189782], [91.73420272985565, 26.164084522329237], [91.73422967546016, 26.164151302269335]]], [[[91.73514833052982, 26.163342818452655], [91.73514833052982, 26.163073323867422], [91.7348788359446, 26.163073323867412], [91.7348788359446, 26.16334281845266], [91.73514833052982, 26.163342818452655]]]]}, "properties": {"element": "way", "id": "497502661", "name": "None", "waterway": "drain", "steep": "1", "overlap_area_sqm": 21363.55874023454, "sediment_choke_risk": "CRITICAL"}}, {"type": "Feature", "geometry": {"type": "Polygon", "coordinates": [[[91.74254291579582, 26.159115339127617], [91.74246695831367, 26.1587676493979], [91.74235360369923, 26.158428352668363], [91.74220394391705, 26.158100716477172], [91.74201942052937, 26.157787896040023], [91.74180181080318, 26.15749290386769], [91.74155321058623, 26.15721858075841], [91.74134670613081, 26.157031582995113], [91.74134670599025, 26.158761410503637], [91.74161620057549, 26.15876141050364], [91.74161620057549, 26.159030905088876], [91.74215518974596, 26.159030905088876], [91.74215518974596, 26.159300399674116], [91.74256276235784, 26.159300399860154], [91.74254291579582, 26.159115339127617]]]}, "properties": {"element": "way", "id": "497502663", "name": "None", "waterway": "drain", "steep": "1", "overlap_area_sqm": 16801.11417810776, "sediment_choke_risk": "CRITICAL"}}, {"type": "Feature", "geometry": {"type": "MultiPolygon", "coordinates": [[[[91.72652450380428, 26.172459015201074], [91.72652450380228, 26.172505634350674], [91.72679399838752, 26.172505634350674], [91.72679399838752, 26.172236139765438], [91.72656966487466, 26.17223613980064], [91.72652450380428, 26.172459015201074]]], [[[91.72034547637837, 26.18500158870173], [91.72041165723077, 26.18517187991144], [91.72059562292709, 26.18517187985676], [91.72059562292709, 26.184902385271524], [91.72032612834185, 26.18490238527152], [91.72032612834316, 26.184929966613115], [91.72034547637837, 26.18500158870173]]], [[[91.72415744037444, 26.187586353897633], [91.72436854712231, 26.18757820627524], [91.72436854712039, 26.187058341953406], [91.72409905253515, 26.187058341953406], [91.72409905253515, 26.18678884736817], [91.72382955794993, 26.186788847368174], [91.72382955794993, 26.18651935278294], [91.72356006336469, 26.186519352782934], [91.72356006336469, 26.186249858197698], [91.72248208502374, 26.186249858197698], [91.72248208502374, 26.186519352782938], [91.72275157960898, 26.186519352782938], [91.72275157960898, 26.18678884736817], [91.72356006336469, 26.186788847368167], [91.72356006336469, 26.18705834195341], [91.72382955794993, 26.187058341953406], [91.72382955800595, 26.187569940930217], [91.72415744037444, 26.187586353897633]]], [[[91.73304106869473, 26.17681754775181], [91.73299237384794, 26.176817547714446], [91.73299237384794, 26.176548053129206], [91.73272287926271, 26.176548053129213], [91.73272287926271, 26.176278558543977], [91.73245338467748, 26.176278558543977], [91.73245338467748, 26.176817547714446], [91.73272287926271, 26.17681754771445], [91.73272287926271, 26.177087042299686], [91.73287900054586, 26.17708704236119], [91.73304106869473, 26.17681754775181]]], [[[91.73455474912349, 26.16396829604035], [91.73440715347844, 26.1639490967779], [91.7340703521906, 26.163920509331703], [91.73407035218888, 26.16415130220836], [91.73380085760365, 26.164151302208364], [91.73380085760522, 26.16391666883954], [91.73361879181003, 26.16391748621341], [91.73322586418958, 26.163954400969107], [91.73316464443336, 26.163962926480213], [91.73287277463558, 26.163844752983554], [91.73248687363957, 26.16372930691637], [91.73208998438992, 26.163649789810396], [91.73168620313534, 26.163607022336006], [91.73152530803368, 26.163597422807115], [91.73109149467695, 26.163592808214187], [91.7306596771157, 26.163630599475397], [91.73023493046877, 26.16371035241547], [91.72982224676974, 26.16383112968577], [91.72973914887889, 26.163860028942786], [91.72938184042464, 26.164002740006026], [91.72921944965722, 26.164085551650818], [91.72921944965464, 26.164151302208364], [91.72909051430248, 26.16415130239203], [91.7290416579488, 26.16417621669859], [91.72872184472389, 26.164378805135147], [91.72842544987152, 26.164608573880162], [91.72815529929554, 26.164863332357832], [91.72807136199229, 26.164959787153105], [91.72841096589893, 26.16495978596407], [91.72841096589893, 26.164690291378832], [91.72975843882512, 26.16469029137883], [91.72975843882512, 26.16495978596407], [91.73029742799558, 26.16495978596407], [91.73029742799558, 26.165229280549305], [91.73110591175129, 26.16522928054931], [91.73110591175129, 26.16549877513454], [91.73164490092176, 26.16549877513454], [91.73164490092176, 26.16576826971978], [91.731914395507, 26.165768269719774], [91.731914395507, 26.166037764305013], [91.73326186843317, 26.16603776430501], [91.73326186843317, 26.16549877513454], [91.73353136301843, 26.16549877513454], [91.73353136301843, 26.164959785964072], [91.73407035218888, 26.164959785964072], [91.73407035218888, 26.1652292805493], [91.73433984677412, 26.165229280549298], [91.73433984677412, 26.165498775134544], [91.7348788359446, 26.16549877513454], [91.7348788359446, 26.165229280549305], [91.73514833052982, 26.1652292805493], [91.73514833052982, 26.164959785964072], [91.73541782511506, 26.164959785964065], [91.73541782511506, 26.164420796793596], [91.73514833052982, 26.164420796793596], [91.73514833052982, 26.164151302208356], [91.7348788359446, 26.164151302208364], [91.73487883594807, 26.16402320377208], [91.73455474912349, 26.16396829604035]], [[91.73433984677412, 26.164151302208364], [91.73433984677412, 26.164420796793593], [91.73407035218888, 26.164420796793593], [91.73407035218888, 26.16415130220836], [91.73433984677412, 26.164151302208364]], [[91.73460934135937, 26.164420796793593], [91.73460934135937, 26.164690291378836], [91.7348788359446, 26.164690291378825], [91.7348788359446, 26.164959785964072], [91.73433984677412, 26.16495978596407], [91.73433984677412, 26.164420796793593], [91.73460934135937, 26.164420796793593]], [[91.73272287926271, 26.164959785964072], [91.73299237384794, 26.16495978596407], [91.73299237384794, 26.165229280549305], [91.73272287926271, 26.1652292805493], [91.73272287926271, 26.164959785964072]], [[91.73164490092176, 26.164420796793593], [91.73137540633654, 26.16442079679359], [91.73137540633654, 26.164151302208364], [91.731914395507, 26.164151302208356], [91.731914395507, 26.163881807623127], [91.73218389009223, 26.163881807623127], [91.73218389009223, 26.164151302208364], [91.73245338467748, 26.164151302208356], [91.73245338467748, 26.164420796793593], [91.73218389009223, 26.164420796793593], [91.73218389009223, 26.164690291378832], [91.73164490092176, 26.164690291378825], [91.73164490092176, 26.164420796793593]]], [[[91.72738440507501, 26.166080613287125], [91.72734680226043, 26.16618171220499], [91.72733298756093, 26.16622623677233], [91.72733298755799, 26.16630725889025], [91.72760248214323, 26.166307258890242], [91.72760248214323, 26.166037764305013], [91.7274029678959, 26.166037764353515], [91.72738440507501, 26.166080613287125]]], [[[91.7214041066828, 26.185441374441993], [91.7214041066828, 26.185171879856757], [91.72086511751233, 26.185171879856757], [91.72086511751233, 26.185441374441993], [91.72113461209756, 26.185441374441993], [91.72113461209756, 26.185710869027222], [91.7214041066828, 26.18571086902723], [91.7214041066828, 26.185980363612458], [91.72167360126804, 26.18598036361246], [91.72167360126804, 26.185441374441993], [91.7214041066828, 26.185441374441993]]], [[[91.72248208502374, 26.186249858197698], [91.72248208502374, 26.18598036361246], [91.72167360126804, 26.18598036361246], [91.72167360126804, 26.186249858197694], [91.72248208502374, 26.186249858197698]]], [[[91.72733298755799, 26.173314118106376], [91.72733298755799, 26.173583612691612], [91.72760248214323, 26.17358361269162], [91.72760248214323, 26.173853107276845], [91.72787197672847, 26.173853107276848], [91.72787197672847, 26.174122601862088], [91.72814147131369, 26.174122601862088], [91.72814147131369, 26.173583612691615], [91.72787197672847, 26.173583612691612], [91.72787197672847, 26.173314118106376], [91.72760248214323, 26.173314118106376], [91.72760248214323, 26.17304462352114], [91.72733298755799, 26.173044623521143], [91.72733298755799, 26.172505634350674], [91.72679399838752, 26.172505634350674], [91.72679399838752, 26.17304462352114], [91.72706349297275, 26.17304462352114], [91.72706349297275, 26.173314118106376], [91.72733298755799, 26.173314118106376]]], [[[91.73110591175129, 26.17547007478827], [91.73110591175129, 26.175200580203033], [91.73056692258082, 26.175200580203036], [91.73056692258082, 26.17547007478827], [91.73110591175129, 26.17547007478827]]], [[[91.73164490092176, 26.17600906395874], [91.731914395507, 26.176009063958737], [91.731914395507, 26.17547007478827], [91.73137540633654, 26.17547007478827], [91.73137540633654, 26.175739569373505], [91.73164490092176, 26.175739569373505], [91.73164490092176, 26.17600906395874]]]]}, "properties": {"element": "way", "id": "497520987", "name": "None", "waterway": "river", "steep": "1", "overlap_area_sqm": 135078.93500698343, "sediment_choke_risk": "CRITICAL"}}, {"type": "Feature", "geometry": {"type": "Polygon", "coordinates": [[[91.68410327219145, 26.101441521017996], [91.68371395776941, 26.10148651375857], [91.68333140193063, 26.10156574289061], [91.68308502382332, 26.101640363950704], [91.68298164960916, 26.10164427134985], [91.6824232666793, 26.101691270582208], [91.68203571329656, 26.101741264570457], [91.68165542958023, 26.101825228797], [91.68128605887573, 26.101942358824306], [91.68097991890076, 26.10207103059962], [91.68097991889742, 26.102167547604115], [91.68205789723837, 26.102167547604115], [91.68205789723837, 26.10189805301888], [91.68259688640883, 26.10189805301888], [91.68259688640883, 26.102167547604115], [91.68313587557931, 26.102167547604115], [91.68313587557931, 26.10189805301888], [91.68367486474978, 26.101898053018882], [91.68367486474978, 26.101628558433642], [91.68421385392026, 26.101628558433642], [91.68421385392327, 26.101438611432073], [91.68410327219145, 26.101441521017996]]]}, "properties": {"element": "way", "id": "517472468", "name": "Pamuhi", "waterway": "river", "steep": "1", "overlap_area_sqm": 10704.235811293462, "sediment_choke_risk": "CRITICAL"}}, {"type": "Feature", "geometry": {"type": "MultiPolygon", "coordinates": [[[[91.70225617916272, 26.102976031372073], [91.70226999113106, 26.102976031359823], [91.7022699911318, 26.102961256721454], [91.70225617916272, 26.102976031372073]]], [[[91.70197701951003, 26.103199626089893], [91.70168965672623, 26.10344835767142], [91.70162658828485, 26.103515020744368], [91.70200049654582, 26.103515020530295], [91.70200049655934, 26.103183013750716], [91.70197701951003, 26.103199626089893]]], [[[91.70442594781294, 26.10270653677459], [91.70442594781294, 26.10243704218935], [91.70415645322771, 26.10243704218935], [91.70415645322771, 26.101898053018875], [91.70361746405723, 26.10189805301888], [91.70361746405723, 26.10270653677459], [91.70442594781294, 26.10270653677459]]], [[[91.70442594781294, 26.10297603135982], [91.70496493698342, 26.102976031359823], [91.70496493698342, 26.102706536774587], [91.70442594781294, 26.10270653677459], [91.70442594781294, 26.10297603135982]]], [[[91.70146150737534, 26.104054009700764], [91.70146150737534, 26.104323504286], [91.70173100196058, 26.104323504285997], [91.70173100196058, 26.104592998871237], [91.70200049654582, 26.104592998871237], [91.70200049654582, 26.104323504285997], [91.70334796947199, 26.104323504285993], [91.70334796947199, 26.104592998871237], [91.70523443156866, 26.104592998871233], [91.70523443156866, 26.10405400970076], [91.70361746405723, 26.104054009700768], [91.70361746405723, 26.10378451511553], [91.70307847488677, 26.10378451511553], [91.70307847488677, 26.103515020530295], [91.70200049654582, 26.103515020530295], [91.70200049654582, 26.104054009700768], [91.70146150737534, 26.104054009700764]]]]}, "properties": {"element": "way", "id": "517474925", "name": "None", "waterway": "stream", "steep": "1", "overlap_area_sqm": 33703.85593503145, "sediment_choke_risk": "CRITICAL"}}, {"type": "Feature", "geometry": {"type": "Polygon", "coordinates": [[[91.69637360615069, 26.160293132195406], [91.69665945038433, 26.160050147574783], [91.69688009942722, 26.159821783188892], [91.69688009942634, 26.159569894259345], [91.69634111025586, 26.159569894259352], [91.69634111025586, 26.160108883429828], [91.69607161567063, 26.160108883429817], [91.6960716157029, 26.160503483543383], [91.69637360615069, 26.160293132195406]]]}, "properties": {"element": "way", "id": "517988998", "name": "None", "waterway": "drain", "steep": "1", "overlap_area_sqm": 3960.710259315271, "sediment_choke_risk": "CRITICAL"}}, {"type": "Feature", "geometry": {"type": "Polygon", "coordinates": [[[91.69657302281853, 26.160183764621635], [91.69695243751931, 26.160233786904048], [91.69733541594408, 26.160250806016354], [91.69771844112744, 26.160234665656716], [91.69809799567189, 26.160185514032914], [91.69879001616027, 26.160065111208198], [91.69886438820473, 26.160051509911423], [91.69930555069703, 26.159966890690022], [91.69930555069347, 26.15983938884459], [91.69795807776728, 26.15983938884459], [91.69795807776728, 26.15956989425935], [91.69768858318204, 26.15956989425935], [91.69768858318204, 26.15983938884459], [91.69688009942634, 26.15983938884458], [91.69688009942634, 26.159569894259345], [91.69634111025586, 26.159569894259352], [91.69634111025586, 26.160108883429828], [91.69623531438747, 26.160108883489983], [91.69657302281853, 26.160183764621635]]]}, "properties": {"element": "way", "id": "517989003", "name": "None", "waterway": "drain", "steep": "1", "overlap_area_sqm": 12974.372216075242, "sediment_choke_risk": "CRITICAL"}}, {"type": "Feature", "geometry": {"type": "MultiPolygon", "coordinates": [[[[91.70732753730991, 26.154699437415683], [91.70740849366209, 26.15435267194081], [91.70745139819917, 26.154000414891367], [91.70745583806341, 26.153646058741547], [91.70742177084392, 26.1532930161513], [91.7073821578399, 26.1531020247102], [91.7071208936653, 26.153102024213695], [91.7071208936653, 26.152832529628455], [91.70658190449483, 26.15283252962845], [91.70658190449483, 26.15256303504322], [91.70631240990959, 26.152563035043222], [91.70631240990959, 26.152293540457986], [91.70604291532436, 26.152293540457983], [91.70604291532436, 26.152024045872754], [91.70577342073912, 26.15202404587275], [91.70577342073912, 26.151485056702278], [91.70550392615388, 26.151485056702278], [91.70550392615388, 26.15121556211704], [91.70496493698342, 26.15121556211704], [91.70496493698342, 26.15067657294657], [91.70469544239818, 26.150676572946566], [91.70469544241186, 26.15035290595695], [91.70447354501266, 26.150289669973215], [91.7040893260807, 26.15021660059687], [91.70364873895664, 26.150153002989803], [91.70334796958771, 26.150122213345952], [91.70334796947199, 26.15067657294657], [91.70361746405723, 26.15067657294657], [91.70361746405723, 26.151215562117038], [91.70415645322771, 26.15121556211704], [91.70415645322771, 26.151485056702278], [91.70334796947199, 26.151485056702278], [91.70334796947199, 26.151754551287514], [91.70415645322771, 26.151754551287514], [91.70415645322771, 26.15202404587275], [91.70469544239818, 26.15202404587275], [91.70469544239818, 26.15256303504322], [91.70442594781294, 26.15256303504322], [91.70442594781294, 26.15283252962846], [91.70469544239818, 26.15283252962846], [91.70469544239818, 26.153102024213695], [91.70442594781294, 26.153102024213688], [91.70442594781294, 26.153641013384167], [91.70469544239818, 26.153641013384167], [91.70469544239818, 26.153910507969403], [91.70550392615388, 26.153910507969403], [91.70550392615388, 26.15418000255464], [91.70631240990959, 26.154180002554632], [91.70631240990959, 26.154449497139872], [91.70685139908007, 26.15444949713987], [91.70685139908007, 26.154988486310344], [91.70722641137482, 26.154988486523916], [91.70732753730991, 26.154699437415683]]], [[[91.70653881073284, 26.15148505673616], [91.70631240990959, 26.151485056702274], [91.70631240990959, 26.151754551287514], [91.70658190449483, 26.151754551287514], [91.70658190449693, 26.15153355585792], [91.70653881073284, 26.15148505673616]]], [[[91.70626582467368, 26.1512155621531], [91.70604291532436, 26.15121556211704], [91.70604291532436, 26.151485056702278], [91.70631240990959, 26.151485056702274], [91.70631240991149, 26.15125856810622], [91.70626582467368, 26.1512155621531]]]]}, "properties": {"element": "way", "id": "517989008", "name": "None", "waterway": "drain", "steep": "1", "overlap_area_sqm": 93066.42144123769, "sediment_choke_risk": "CRITICAL"}}, {"type": "Feature", "geometry": {"type": "Polygon", "coordinates": [[[91.69657142548307, 26.15965018309602], [91.69688009942868, 26.159625229654335], [91.69688009942634, 26.159569894259345], [91.69634111025586, 26.159569894259352], [91.69634111026299, 26.159648346654894], [91.69657142548307, 26.15965018309602]]]}, "properties": {"element": "way", "id": "517989009", "name": "None", "waterway": "drain", "steep": "1", "overlap_area_sqm": 434.1883233820386, "sediment_choke_risk": "MODERATE"}}, {"type": "Feature", "geometry": {"type": "MultiPolygon", "coordinates": [[[[91.7014301426517, 26.147958342469053], [91.70111100679924, 26.147751891300253], [91.70077098772414, 26.1475746654991], [91.70041335983477, 26.14742837170667], [91.70000836923617, 26.147283876146716], [91.69984453986966, 26.14723390122519], [91.69984453986393, 26.147712132508975], [91.70011403444917, 26.14771213250897], [91.70011403444917, 26.14798162709421], [91.7014595573057, 26.147981629621572], [91.7014301426517, 26.147958342469053]]], [[[91.69962543715613, 26.1471670652292], [91.69957504527962, 26.14715421343063], [91.69957504527869, 26.1471731433385], [91.69964536260514, 26.147173143387135], [91.69962543715613, 26.1471670652292]]], [[[91.69400604141677, 26.14746940561547], [91.69391565900139, 26.147536094360373], [91.69391565898874, 26.147712132508975], [91.69418515357398, 26.14771213250897], [91.69418515357398, 26.147981627094207], [91.69499363732969, 26.147981627094204], [91.69499363732969, 26.14771213250897], [91.69445464815921, 26.14771213250898], [91.69445464815921, 26.147442637923735], [91.69418515357398, 26.147442637923742], [91.69418515357694, 26.147364126328164], [91.69400604141677, 26.14746940561547]]]]}, "properties": {"element": "way", "id": "517989010", "name": "None", "waterway": "drain", "steep": "1", "overlap_area_sqm": 10883.389603442489, "sediment_choke_risk": "CRITICAL"}}, {"type": "Feature", "geometry": {"type": "MultiPolygon", "coordinates": [[[[91.6927182827055, 26.17148782258593], [91.69283643182504, 26.171151350175776], [91.69286916255118, 26.171012142418796], [91.6928829800693, 26.170984102988538], [91.69300660625139, 26.170647742861995], [91.69309309985732, 26.170302068026498], [91.69314162821449, 26.16995040759799], [91.69315172430225, 26.16959614830928], [91.69312329123665, 26.169242701892063], [91.69305660319019, 26.168893472219253], [91.69295230273814, 26.168551822524158], [91.69281139465731, 26.168221043012256], [91.69279619843745, 26.1681937210586], [91.69229869147733, 26.1681937209869], [91.69229869147733, 26.168463215572128], [91.6920291968921, 26.168463215572128], [91.6920291968921, 26.1681937209869], [91.69175970230685, 26.168193720986896], [91.69175970230685, 26.16792422640166], [91.69122071313639, 26.16792422640166], [91.69122071313639, 26.167654731816416], [91.6898732402102, 26.167654731816427], [91.6898732402102, 26.167115742645954], [91.68933425103974, 26.16711574264595], [91.68933425103974, 26.167385237231187], [91.68879526186926, 26.16738523723119], [91.68879526186926, 26.16765473181642], [91.6890647564545, 26.16765473181642], [91.6890647564545, 26.167924226401663], [91.68960374562496, 26.167924226401663], [91.68960374562496, 26.168193720986903], [91.69041222938067, 26.168193720986896], [91.69041222938067, 26.16846321557213], [91.69068172396591, 26.16846321557213], [91.69068172396591, 26.169002204742608], [91.69095121855115, 26.1690022047426], [91.69095121855115, 26.169271699327844], [91.69122071313639, 26.169271699327847], [91.69122071313639, 26.16981068849832], [91.69149020772161, 26.16981068849831], [91.69149020772161, 26.17008018308355], [91.69175970230685, 26.170080183083545], [91.69175970230685, 26.17061917225402], [91.69149020772161, 26.170619172254018], [91.69149020772161, 26.17088866683925], [91.69175970230685, 26.170888666839257], [91.69175970230685, 26.171158161424493], [91.6920291968921, 26.171158161424493], [91.6920291968921, 26.171427656009726], [91.69149020772161, 26.171427656009723], [91.69149020772161, 26.171697150594962], [91.69041222938067, 26.171697150594962], [91.69041222938067, 26.1719666451802], [91.6898732402102, 26.171966645180202], [91.6898732402102, 26.172236139765435], [91.68852576728402, 26.172236139765445], [91.68852576728402, 26.171966645180195], [91.68771728352831, 26.1719666451802], [91.68771728352831, 26.172236139765435], [91.6882562726988, 26.172236139765435], [91.6882562726988, 26.172505634350667], [91.68852576728402, 26.172505634350674], [91.68852576728402, 26.173044623521143], [91.6898732402102, 26.173044623521143], [91.6898732402102, 26.172505634350674], [91.69068172396591, 26.172505634350674], [91.69068172396591, 26.172236139765435], [91.69122071313639, 26.17223613976544], [91.69122071313639, 26.171966645180202], [91.6920291968921, 26.171966645180195], [91.6920291968921, 26.171697150594962], [91.69261893349089, 26.171697153252094], [91.6927182827055, 26.17148782258593]], [[91.69229869147733, 26.170888666839254], [91.69229869147733, 26.170619172254025], [91.6928376806478, 26.17061917225402], [91.6928376806478, 26.170888666839254], [91.69229869147733, 26.170888666839254]]], [[[91.69218427835138, 26.16732507421285], [91.69191382211773, 26.167068131248495], [91.69161676017387, 26.166836346581412], [91.69129595335292, 26.166631952269835], [91.69122071313723, 26.166593383779723], [91.69122071313639, 26.166846248060725], [91.69149020772161, 26.166846248060722], [91.69149020772161, 26.167115742645954], [91.69122071313639, 26.167115742645958], [91.69122071313639, 26.167654731816416], [91.69149020772161, 26.16765473181642], [91.69149020772161, 26.167385237231183], [91.69223618472863, 26.167385238790075], [91.69218427835138, 26.16732507421285]]], [[[91.68394435933502, 26.179781988152037], [91.68394435933502, 26.179512493566804], [91.68367486474978, 26.179512493566808], [91.68367486474978, 26.179781988152033], [91.68394435933502, 26.179781988152037]]], [[[91.69068172396591, 26.167115742645954], [91.69068172396591, 26.16684624806072], [91.6898732402102, 26.166846248060715], [91.6898732402102, 26.167115742645954], [91.69068172396591, 26.167115742645954]]], [[[91.69014273479544, 26.171158161424486], [91.69014273479544, 26.171427656009726], [91.6890647564545, 26.171427656009723], [91.6890647564545, 26.171966645180202], [91.68933425103974, 26.1719666451802], [91.68933425103974, 26.17169715059496], [91.69041222938067, 26.171697150594962], [91.69041222938067, 26.171158161424493], [91.69014273479544, 26.171158161424486]]]]}, "properties": {"element": "way", "id": "543491499", "name": "None", "waterway": "drain", "steep": "1", "overlap_area_sqm": 120989.0595809636, "sediment_choke_risk": "CRITICAL"}}, {"type": "Feature", "geometry": {"type": "MultiPolygon", "coordinates": [[[[91.7987490526481, 26.200998385587127], [91.79874905264549, 26.201072060385673], [91.79885193174282, 26.201072060638086], [91.7987490526481, 26.200998385587127]]], [[[91.79710135324402, 26.199994082070244], [91.79686259054884, 26.19999408204473], [91.79686259054884, 26.20026357662997], [91.79713208513408, 26.20026357662997], [91.79713208513472, 26.200007592455197], [91.79710135324402, 26.199994082070244]]], [[[91.7945551570843, 26.199660404266083], [91.79417300756252, 26.199742490757174], [91.79380161631921, 26.199857972211696], [91.79344455977218, 26.20000573656587], [91.79310527633353, 26.200184360877596], [91.79298393743233, 26.200263576843636], [91.79335916094077, 26.20026357662997], [91.79335916094077, 26.200533071215197], [91.79443713928171, 26.2005330712152], [91.79443713928171, 26.200802565800437], [91.79470663386695, 26.200802565800437], [91.79470663386695, 26.201072060385673], [91.79497612845219, 26.201072060385673], [91.79497612845219, 26.20134155497091], [91.7957846122079, 26.201341554970913], [91.7957846122079, 26.201611049556146], [91.79605410679314, 26.201611049556146], [91.79605410679314, 26.201880544141382], [91.79632360137836, 26.201880544141382], [91.79632360137836, 26.202419533311854], [91.79794056888979, 26.202419533311847], [91.79794056888979, 26.202150038726614], [91.79767107430455, 26.20215003872662], [91.79767107430455, 26.201880544141382], [91.7974015797193, 26.20188054414138], [91.7974015797193, 26.201611049556146], [91.7965930959636, 26.201611049556146], [91.7965930959636, 26.20080256580044], [91.79632360137836, 26.200802565800434], [91.79632360137836, 26.2005330712152], [91.79551511762266, 26.2005330712152], [91.79551511762266, 26.200263576629965], [91.79524562303743, 26.20026357662997], [91.79524562303743, 26.199994082044725], [91.79470663386695, 26.199994082044736], [91.79470663387896, 26.199641762621418], [91.7945551570843, 26.199660404266083]]], [[[91.7919880063301, 26.201168964100976], [91.7918702698691, 26.20134155503389], [91.7920116880146, 26.20134155497091], [91.79201168801714, 26.201140852153017], [91.7919880063301, 26.201168964100976]]], [[[91.79117822514031, 26.201880544667702], [91.79066421508841, 26.201880544141382], [91.79066421508841, 26.201611049556142], [91.78985573133271, 26.201611049556146], [91.78985573134105, 26.201176723688004], [91.7896209225353, 26.201072060414], [91.78958623674747, 26.20107206038568], [91.78958623674819, 26.201056599583055], [91.78901632900684, 26.200802567341285], [91.7882387638213, 26.200802565800437], [91.7882387638213, 26.2005330712152], [91.78743028006558, 26.200533071215204], [91.78743028006558, 26.200263576629972], [91.78689129089513, 26.200263576629965], [91.78689129089513, 26.199994082044732], [91.78635230172465, 26.19999408204473], [91.78635230172465, 26.199455092874263], [91.78473533421324, 26.19945509287426], [91.78473533421324, 26.199185598289027], [91.78446583962798, 26.19918559828902], [91.78446583963124, 26.199074194458824], [91.78414501897534, 26.199086550539505], [91.78378881732702, 26.199129367845924], [91.78343830709153, 26.199200829977265], [91.78309631275727, 26.19930036106842], [91.78298901551814, 26.199336460135], [91.78265275257796, 26.19946565695581], [91.78233095291408, 26.199621983313822], [91.78202629908634, 26.199804136073276], [91.78176412538127, 26.19999408205725], [91.78177089377563, 26.199994082044725], [91.78177089377563, 26.200263576629965], [91.78230988294611, 26.20026357662997], [91.78230988294611, 26.200533071215197], [91.78311836670181, 26.2005330712152], [91.78311836670181, 26.200263576629965], [91.7836573558723, 26.200263576629965], [91.7836573558723, 26.200533071215197], [91.78338786128705, 26.2005330712152], [91.78338786128705, 26.200802565800437], [91.7836573558723, 26.200802565800437], [91.7836573558723, 26.201341554970906], [91.78473533421324, 26.20134155497091], [91.78473533421324, 26.201611049556146], [91.78608280713941, 26.201611049556146], [91.78608280713941, 26.201880544141382], [91.78716078548035, 26.201880544141382], [91.78716078548035, 26.202150038726618], [91.78743028006558, 26.202150038726614], [91.78743028006558, 26.202419533311854], [91.78850825840652, 26.202419533311854], [91.78850825840652, 26.202150038726618], [91.78985573133271, 26.202150038726618], [91.78985573133271, 26.20241953331185], [91.7912032042589, 26.20241953331185], [91.7912032042589, 26.20268902789709], [91.79174219342936, 26.20268902789709], [91.79174219342936, 26.202958522482326], [91.79228118259985, 26.20295852248233], [91.79228118259985, 26.20241953331185], [91.79174219342936, 26.20241953331185], [91.79174219342936, 26.20215003872662], [91.79147269884412, 26.202150038726618], [91.79147269884722, 26.20205107168164], [91.79117822514031, 26.201880544667702]], [[91.78796926923607, 26.201611049556142], [91.78796926923607, 26.201880544141382], [91.78743028006558, 26.201880544141382], [91.78743028006558, 26.201341554970913], [91.78769977465082, 26.20134155497091], [91.78769977465082, 26.201611049556146], [91.78796926923607, 26.201611049556142]], [[91.78796926923607, 26.20134155497091], [91.7882387638213, 26.20134155497091], [91.7882387638213, 26.201611049556146], [91.78796926923607, 26.201611049556142], [91.78796926923607, 26.20134155497091]]], [[[91.7807919266161, 26.201025734942473], [91.78069002359206, 26.201187032403276], [91.78046623757498, 26.2016004354856], [91.78046139381074, 26.20161104965789], [91.78123190460516, 26.201611049556146], [91.78123190460516, 26.201880544141382], [91.78257937753135, 26.201880544141382], [91.78257937753135, 26.20215003872662], [91.78338786128705, 26.202150038726618], [91.78338786128705, 26.201880544141385], [91.78311836670181, 26.201880544141382], [91.78311836670181, 26.20161104955615], [91.78257937753135, 26.201611049556142], [91.78257937753135, 26.20134155497091], [91.7815013991904, 26.201341554970913], [91.7815013991904, 26.201072060385673], [91.78123190460516, 26.201072060385677], [91.78123190460516, 26.200802565800437], [91.78095157440637, 26.200802566052566], [91.7807919266161, 26.201025734942473]]], [[[91.78796926923607, 26.202958522482326], [91.78796926923607, 26.20268902789709], [91.78743028006558, 26.202689027897087], [91.78743028006558, 26.202958522482326], [91.78796926923607, 26.202958522482326]]], [[[91.78500482879846, 26.202150038726618], [91.78419634504276, 26.202150038726618], [91.78419634504276, 26.20241953331185], [91.78446583962798, 26.202419533311847], [91.78446583962798, 26.20268902789709], [91.78500482879846, 26.20268902789709], [91.78500482879846, 26.202958522482326], [91.78554381796893, 26.202958522482326], [91.78554381796893, 26.203228017067566], [91.78581331255418, 26.203228017067563], [91.78581331255418, 26.203497511652795], [91.78635230172465, 26.203497511652795], [91.78635230172465, 26.203767006238028], [91.78743028006558, 26.20376700623803], [91.78743028006558, 26.20403650082326], [91.78877775299176, 26.20403650082326], [91.78877775299176, 26.203767006238028], [91.7882387638213, 26.203767006238028], [91.7882387638213, 26.2034975116528], [91.78769977465082, 26.2034975116528], [91.78769977465082, 26.203228017067566], [91.78635230172465, 26.203228017067563], [91.78635230172465, 26.202958522482326], [91.78581331255418, 26.202958522482326], [91.78581331255418, 26.202419533311854], [91.78500482879846, 26.202419533311854], [91.78500482879846, 26.202150038726618]]], [[[91.78177089377563, 26.219936681352184], [91.78177089377563, 26.219667186766944], [91.7815013991904, 26.219667186766944], [91.7815013991904, 26.219936681352184], [91.78177089377563, 26.219936681352184]]], [[[91.78230988294611, 26.22047567052265], [91.78230988294611, 26.220206175937417], [91.78204038836087, 26.220206175937417], [91.78204038836087, 26.220475670522656], [91.78230988294611, 26.22047567052265]]], [[[91.77934544250851, 26.221284154278365], [91.77961493709374, 26.221284154278365], [91.77961493709374, 26.220745165107893], [91.77934544250851, 26.220745165107893], [91.77934544250851, 26.221284154278365]]], [[[91.79713208513408, 26.2005330712152], [91.7974015797193, 26.2005330712152], [91.7974015797193, 26.20026357662997], [91.79713208513408, 26.20026357662997], [91.79713208513408, 26.2005330712152]]], [[[91.7920116880146, 26.201611049556146], [91.79228118259985, 26.201611049556146], [91.79228118259985, 26.20134155497091], [91.7920116880146, 26.20134155497091], [91.7920116880146, 26.201611049556146]]], [[[91.79928804181596, 26.20241953331185], [91.79928804181596, 26.202150038726618], [91.79901854723073, 26.202150038726618], [91.79901854723073, 26.20241953331185], [91.79928804181596, 26.20241953331185]]], [[[91.7912032042589, 26.204305995408504], [91.79174219342936, 26.204305995408507], [91.79174219342936, 26.20403650082326], [91.7912032042589, 26.204036500823257], [91.7912032042589, 26.204305995408504]]], [[[91.79551511762266, 26.206192457505157], [91.79551511762266, 26.20592296291992], [91.793628655526, 26.205922962919917], [91.793628655526, 26.20565346833468], [91.79255067718506, 26.205653468334685], [91.79255067718506, 26.20538397374944], [91.79174219342936, 26.20538397374945], [91.79174219342936, 26.205114479164216], [91.79093370967365, 26.20511447916421], [91.79093370967365, 26.204844984578976], [91.79039472050317, 26.204844984578973], [91.79039472050317, 26.20457548999374], [91.78958623674747, 26.20457548999374], [91.78958623674747, 26.204305995408504], [91.78850825840652, 26.204305995408504], [91.78850825840652, 26.20457548999374], [91.78904724757702, 26.204575489993736], [91.78904724757702, 26.20484498457898], [91.78931674216224, 26.204844984578976], [91.78931674216224, 26.205114479164212], [91.78985573133271, 26.205114479164212], [91.78985573133271, 26.20538397374945], [91.79012522591796, 26.20538397374944], [91.79012522591796, 26.20565346833468], [91.79039472050317, 26.20565346833468], [91.79039472050317, 26.205922962919917], [91.79066421508841, 26.20592296291992], [91.79066421508841, 26.205383973749445], [91.79093370967365, 26.20538397374945], [91.79093370967365, 26.205922962919917], [91.79228118259985, 26.205922962919917], [91.79228118259985, 26.206192457505153], [91.79443713928171, 26.206192457505157], [91.79443713928171, 26.206461952090386], [91.79605410679314, 26.206461952090393], [91.79605410679314, 26.206192457505157], [91.79632360137836, 26.206192457505157], [91.79632360137836, 26.20592296291992], [91.7957846122079, 26.20592296291992], [91.7957846122079, 26.206192457505153], [91.79551511762266, 26.206192457505157]], [[91.79039472050317, 26.205383973749445], [91.79039472050317, 26.205114479164212], [91.79066421508841, 26.205114479164212], [91.79066421508841, 26.205383973749445], [91.79039472050317, 26.205383973749445]]], [[[91.7965930959636, 26.205922962919917], [91.7965930959636, 26.205653468334678], [91.79632360137836, 26.205653468334685], [91.79632360137836, 26.20592296291992], [91.7965930959636, 26.205922962919917]]]]}, "properties": {"element": "way", "id": "585129873", "name": "None", "waterway": "stream", "steep": "1", "overlap_area_sqm": 311095.0061381549, "sediment_choke_risk": "CRITICAL"}}, {"type": "Feature", "geometry": {"type": "Polygon", "coordinates": [[[91.73433909817416, 26.165194493660625], [91.73430745099104, 26.165229280575982], [91.73433984677412, 26.165229280549298], [91.73433984677412, 26.165498775134544], [91.7348788359446, 26.16549877513454], [91.7348788359446, 26.165229280549305], [91.73514833052982, 26.1652292805493], [91.73514833052982, 26.164959785964072], [91.73541782511506, 26.164959785964065], [91.73541782511506, 26.164420796793596], [91.73514833052982, 26.164420796793596], [91.73514833053038, 26.164409526531454], [91.73505751672747, 26.164499165806895], [91.73487883594478, 26.164694083531867], [91.7348788359446, 26.164959785964072], [91.73459927493279, 26.164959786216023], [91.73433909817416, 26.165194493660625]]]}, "properties": {"element": "way", "id": "1266688604", "name": "None", "waterway": "drain", "steep": "1", "overlap_area_sqm": 6525.892888208266, "sediment_choke_risk": "CRITICAL"}}, {"type": "Feature", "geometry": {"type": "MultiPolygon", "coordinates": [[[[91.73336647971107, 26.16205949802558], [91.73351190213884, 26.162369517268885], [91.73368868544625, 26.162665968238453], [91.73371308550142, 26.162702674613765], [91.73371432881608, 26.162706548960156], [91.73374789458794, 26.162805785967503], [91.73385948517695, 26.163119488540087], [91.73399771640997, 26.163451189604334], [91.73417131113501, 26.16376906643342], [91.73437859776314, 26.164070057584908], [91.7346175801776, 26.164351264216553], [91.734885956951, 26.1646099780088], [91.73518114350534, 26.164843707253027], [91.73536055286421, 26.164959786006293], [91.73541782511506, 26.164959785964065], [91.73541782511506, 26.164420796793596], [91.73514833052982, 26.164420796793596], [91.73514833052982, 26.164151302208356], [91.7348788359446, 26.164151302208364], [91.7348788359446, 26.163881807623124], [91.73460934135937, 26.163881807623124], [91.73460934135937, 26.163073323867415], [91.73433984677412, 26.163073323867412], [91.73433984677412, 26.162534334696943], [91.73407035218888, 26.162534334696943], [91.73407035218888, 26.162264840111707], [91.73380085760365, 26.162264840111703], [91.73380085760365, 26.161995345526474], [91.73334392945712, 26.161995346084463], [91.73336647971107, 26.16205949802558]]], [[[91.74245148711587, 26.159128009321115], [91.74236263018585, 26.158782818520695], [91.74223670971713, 26.158447149695313], [91.74207493867753, 26.158124235435448], [91.74187887525096, 26.157817185474332], [91.74165040782194, 26.15752895674365], [91.74139173678232, 26.157262324901527], [91.74134670617163, 26.157224199719185], [91.74134670599025, 26.158761410503637], [91.74161620057549, 26.15876141050364], [91.74161620057549, 26.159030905088876], [91.74215518974596, 26.159030905088876], [91.74215518974596, 26.159300399674116], [91.74247647685401, 26.15930039991706], [91.74245148711587, 26.159128009321115]]], [[[91.73514833052982, 26.163342818452655], [91.73514833052982, 26.163073323867422], [91.7348788359446, 26.163073323867412], [91.7348788359446, 26.16334281845266], [91.73514833052982, 26.163342818452655]]]]}, "properties": {"element": "way", "id": "1266688608", "name": "None", "waterway": "drain", "steep": "1", "overlap_area_sqm": 31659.480791115966, "sediment_choke_risk": "CRITICAL"}}, {"type": "Feature", "geometry": {"type": "MultiPolygon", "coordinates": [[[[91.73403105409136, 26.16354514928021], [91.73420459151734, 26.16386305164803], [91.73441182392419, 26.16416407329612], [91.73465075571742, 26.16444531508856], [91.73491908595727, 26.164704068367207], [91.73521423051399, 26.16493784104316], [91.73524813660215, 26.164959786022898], [91.73541782511506, 26.164959785964065], [91.73541782511506, 26.164420796793596], [91.73514833052982, 26.164420796793596], [91.73514833052982, 26.164151302208356], [91.7348788359446, 26.164151302208364], [91.7348788359446, 26.163881807623124], [91.73460934135937, 26.163881807623124], [91.73460934135937, 26.163073323867415], [91.73433984677412, 26.163073323867412], [91.73433984677412, 26.162534334696943], [91.73407035218888, 26.162534334696943], [91.73407035218888, 26.162264840111707], [91.73380085760365, 26.162264840111703], [91.73380085760365, 26.161995345526474], [91.73367135962337, 26.161995345831905], [91.73366849515301, 26.162073275888293], [91.73369400920049, 26.162426908472668], [91.7337578106921, 26.162776581405048], [91.73385928551873, 26.16311892710649], [91.73389288268325, 26.163213427881008], [91.73403105409136, 26.16354514928021]]], [[[91.73514833052982, 26.163342818452655], [91.73514833052982, 26.163073323867422], [91.7348788359446, 26.163073323867412], [91.7348788359446, 26.16334281845266], [91.73514833052982, 26.163342818452655]]]]}, "properties": {"element": "way", "id": "1266688609", "name": "None", "waterway": "drain", "steep": "1", "overlap_area_sqm": 17596.634693131477, "sediment_choke_risk": "CRITICAL"}}, {"type": "Feature", "geometry": {"type": "Polygon", "coordinates": [[[91.73513869440727, 26.164583032925435], [91.73487883594701, 26.164750708529876], [91.7348788359446, 26.164959785964072], [91.73460319470465, 26.164959786216244], [91.73452372909463, 26.165022543987448], [91.73430871459733, 26.165229280575083], [91.73433984677412, 26.165229280549298], [91.73433984677412, 26.165498775134544], [91.7348788359446, 26.16549877513454], [91.7348788359446, 26.165229280549305], [91.73514833052982, 26.1652292805493], [91.73514833052982, 26.164959785964072], [91.73541782511506, 26.164959785964065], [91.73541782511678, 26.16443794737176], [91.73513869440727, 26.164583032925435]]]}, "properties": {"element": "way", "id": "1304574997", "name": "None", "waterway": "river", "steep": "1", "overlap_area_sqm": 5921.80591657698, "sediment_choke_risk": "CRITICAL"}}]}