{
  "type": "FeatureCollection",
  "features": [
    {
      "type": "Feature",
      "geometry": {
        "type": "Polygon",
        "coordinates": [
          [
            [
              91.75,
              26.165
            ],
            [
              91.77,
              26.165
            ],
            [
              91.77,
              26.15
            ],
            [
              91.75,
              26.15
            ],
            [
              91.75,
              26.165
            ]
          ]
        ]
      },
      "properties": {
        "name": "Bharalu Commercial Fringe",
        "reason": "Intersection: >80% built-up density, <3 degree slope, >400m to nearest mapped outfall. DEM resolution insufficient.",
        "priority": "CRITICAL"
      }
    },
    {
      "type": "Feature",
      "geometry": {
        "type": "Polygon",
        "coordinates": [
          [
            [
              91.68,
              26.12
            ],
            [
              91.71,
              26.12
            ],
            [
              91.71,
              26.105
            ],
            [
              91.68,
              26.105
            ],
            [
              91.68,
              26.12
            ]
          ]
        ]
      },
      "properties": {
        "name": "Deepor Beel Eastern Settlement",
        "reason": "Intersection: 45% new informal structures (3yrs), <2 degree slope, zero mapped drainage network. Extreme micro-ponding risk.",
        "priority": "HIGH"
      }
    }
  ]
}