{
"type": "FeatureCollection",
"name": "guwahati_drains",
"crs": { "type": "name", "properties": { "name": "urn:ogc:def:crs:OGC:1.3:CRS84" } },
"features": [
{ "type": "Feature", "properties": { "element": "way", "id": 44638717, "name": null, "waterway": "river" }, "geometry": { "type": "LineString", "coordinates": [ [ 91.6955855, 26.1076922 ], [ 91.6951564, 26.1075766 ], [ 91.6949161, 26.1076305 ], [ 91.6946157, 26.1079696 ], [ 91.6943496, 26.1081084 ], [ 91.6941779, 26.1081161 ], [ 91.6938518, 26.1079388 ], [ 91.6935943, 26.1076845 ], [ 91.6933282, 26.107222 ], [ 91.6931909, 26.1070679 ], [ 91.6930106, 26.1070139 ], [ 91.6926072, 26.1070756 ], [ 91.6923326, 26.107091 ], [ 91.6922715, 26.1070084 ], [ 91.6922124, 26.1067981 ], [ 91.6923755, 26.106274 ], [ 91.692324, 26.1059888 ], [ 91.6921695, 26.1058578 ], [ 91.6919206, 26.1057576 ], [ 91.691706, 26.1058869 ], [ 91.6914234, 26.1061208 ], [ 91.6911882, 26.1062904 ], [ 91.6908962, 26.1063402 ], [ 91.6906674, 26.1063048 ], [ 91.6905743, 26.1062048 ], [ 91.6905661, 26.1060412 ], [ 91.6905215, 26.1057268 ], [ 91.6903327, 26.1056684 ], [ 91.6896824, 26.1057427 ], [ 91.6893245, 26.1056389 ], [ 91.6892169, 26.1054339 ], [ 91.6890023, 26.1049252 ], [ 91.6887367, 26.104875 ], [ 91.6880767, 26.1049129 ], [ 91.6877543, 26.104979 ], [ 91.687363, 26.1051102 ], [ 91.687146, 26.1053054 ], [ 91.6868847, 26.1054078 ], [ 91.6867166, 26.1055418 ], [ 91.6865392, 26.1056064 ], [ 91.6862973, 26.1055455 ], [ 91.6860029, 26.1054932 ], [ 91.6856957, 26.1054841 ], [ 91.6854575, 26.1056497 ], [ 91.6852944, 26.1056651 ], [ 91.68514, 26.1056189 ], [ 91.6849254, 26.1050948 ], [ 91.6847108, 26.1049175 ], [ 91.6844158, 26.1050416 ] ] } },
{ "type": "Feature", "properties": { "element": "way", "id": 44640597, "name": null, "waterway": "river" }, "geometry": { "type": "LineString", "coordinates": [ [ 91.6447824, 26.1536958 ], [ 91.6450742, 26.1541735 ], [ 91.6453574, 26.1551828 ], [ 91.6460612, 26.155853 ], [ 91.6460269, 26.1566311 ], [ 91.6466535, 26.1571935 ], [ 91.6468337, 26.1575017 ], [ 91.6469453, 26.1581488 ], [ 91.6474946, 26.1590733 ], [ 91.6478208, 26.1594739 ], [ 91.6480439, 26.16046 ], [ 91.6484645, 26.1612073 ], [ 91.648619, 26.1620239 ], [ 91.6488593, 26.1622473 ], [ 91.6493829, 26.1622781 ], [ 91.6495975, 26.1624245 ], [ 91.649649, 26.162671 ], [ 91.6493657, 26.1633874 ], [ 91.6493915, 26.163919 ], [ 91.6492112, 26.1643889 ], [ 91.648413, 26.1644736 ], [ 91.64785, 26.1642926 ], [ 91.6476622, 26.1642782 ], [ 91.6474289, 26.164301 ], [ 91.6471995, 26.1643179 ], [ 91.6470896, 26.164301 ], [ 91.6469407, 26.1642421 ], [ 91.6467882, 26.1641596 ], [ 91.6467717, 26.1641542 ], [ 91.6466483, 26.1641253 ], [ 91.6465102, 26.1641265 ], [ 91.6462702, 26.1641819 ], [ 91.6459617, 26.1642565 ], [ 91.645617, 26.1643347 ], [ 91.6454709, 26.1643432 ], [ 91.6453475, 26.1643275 ], [ 91.6451597, 26.1642625 ], [ 91.6448379, 26.1641097 ], [ 91.6445455, 26.1640182 ], [ 91.6443202, 26.1639628 ], [ 91.6435799, 26.163834 ], [ 91.643478, 26.1637967 ], [ 91.6433935, 26.1637317 ], [ 91.643372, 26.1636836 ], [ 91.643368, 26.1636089 ], [ 91.6433895, 26.1634452 ], [ 91.6434431, 26.162995 ], [ 91.6434029, 26.1628795 ], [ 91.6433009, 26.1627687 ], [ 91.6431347, 26.1627037 ], [ 91.6428047, 26.1626412 ], [ 91.6425768, 26.1625882 ], [ 91.6424078, 26.1625352 ], [ 91.6422924, 26.1624606 ], [ 91.6420926, 26.1622499 ], [ 91.6419277, 26.162079 ], [ 91.6418244, 26.1620285 ], [ 91.6417319, 26.162008 ], [ 91.6416031, 26.1620393 ], [ 91.6414985, 26.1621308 ], [ 91.6414422, 26.162268 ], [ 91.6414368, 26.1624774 ], [ 91.6414583, 26.1626508 ], [ 91.6415307, 26.1628795 ], [ 91.6422629, 26.1643648 ], [ 91.6427028, 26.1651352 ], [ 91.6437435, 26.1666085 ], [ 91.6442692, 26.1675136 ], [ 91.6448486, 26.1686306 ], [ 91.6454387, 26.1701424 ], [ 91.6467046, 26.1754286 ] ] } },
{ "type": "Feature", "properties": { "element": "way", "id": 44643236, "name": null, "waterway": "river" }, "geometry": { "type": "LineString", "coordinates": [ [ 91.7078972, 26.11263 ], [ 91.707543, 26.1125724 ], [ 91.7070108, 26.1123181 ], [ 91.7068992, 26.1122179 ], [ 91.706822, 26.1120946 ], [ 91.7068392, 26.1117709 ], [ 91.7067619, 26.1115089 ], [ 91.7066246, 26.1114318 ], [ 91.7064787, 26.1114164 ], [ 91.7061354, 26.1116322 ], [ 91.7056547, 26.1116399 ], [ 91.705217, 26.1117709 ], [ 91.7047792, 26.1114703 ], [ 91.7046419, 26.1114395 ], [ 91.7045389, 26.1114858 ], [ 91.704393, 26.1119405 ], [ 91.7042986, 26.1120021 ], [ 91.704187, 26.1119867 ], [ 91.7039295, 26.1117093 ], [ 91.7038008, 26.111663 ], [ 91.7036377, 26.111663 ], [ 91.7033373, 26.1117786 ], [ 91.7031484, 26.1117478 ], [ 91.702642, 26.1115859 ], [ 91.7024361, 26.1115859 ], [ 91.7021013, 26.1117015 ], [ 91.7019245, 26.1117932 ], [ 91.7018782, 26.1118172 ], [ 91.7017322, 26.1118634 ], [ 91.7015348, 26.111794 ], [ 91.7013889, 26.1109925 ], [ 91.7013203, 26.1108615 ], [ 91.7011743, 26.1108306 ], [ 91.7007795, 26.1107844 ], [ 91.700625, 26.1107382 ], [ 91.7002645, 26.1103451 ], [ 91.7000585, 26.1102526 ], [ 91.6994663, 26.110191 ], [ 91.6993805, 26.1102449 ], [ 91.6993547, 26.1103528 ], [ 91.6995006, 26.1107844 ], [ 91.6995006, 26.1109694 ], [ 91.6993204, 26.1111235 ], [ 91.6992346, 26.1111312 ], [ 91.6991487, 26.1111158 ], [ 91.6987282, 26.1106071 ], [ 91.6985737, 26.1105532 ], [ 91.6983848, 26.1105609 ], [ 91.6979643, 26.1107921 ], [ 91.6978098, 26.1107921 ], [ 91.6976381, 26.1107459 ], [ 91.6974064, 26.1105532 ], [ 91.6971489, 26.1101678 ], [ 91.697003, 26.1100599 ], [ 91.6969429, 26.1099674 ], [ 91.6969858, 26.1098673 ], [ 91.697312, 26.1096515 ], [ 91.6973978, 26.1095281 ], [ 91.6973978, 26.1094434 ], [ 91.6972948, 26.1093586 ], [ 91.6970716, 26.1093123 ], [ 91.6966339, 26.10932 ], [ 91.6960932, 26.1092815 ], [ 91.6959215, 26.1092044 ], [ 91.6958443, 26.1089886 ], [ 91.6958958, 26.1088576 ], [ 91.696076, 26.1086649 ], [ 91.6964022, 26.1084414 ], [ 91.6964622, 26.1083104 ], [ 91.6964365, 26.1081177 ], [ 91.6963335, 26.1079404 ], [ 91.6961962, 26.1078171 ], [ 91.6955855, 26.1076922 ] ] } },
{ "type": "Feature", "properties": { "element": "way", "id": 44644685, "name": null, "waterway": "river" }, "geometry": { "type": "LineString", "coordinates": [ [ 91.7193058, 26.1154512 ], [ 91.7191827, 26.1153797 ], [ 91.7190641, 26.115341 ], [ 91.718805, 26.1152564 ], [ 91.7187793, 26.1150791 ], [ 91.7188222, 26.1148479 ], [ 91.7188222, 26.1146861 ], [ 91.718745, 26.1145782 ], [ 91.7184102, 26.1145165 ], [ 91.7181871, 26.1142237 ], [ 91.7178437, 26.1141389 ], [ 91.7177922, 26.1140387 ], [ 91.7177751, 26.1137921 ], [ 91.7176807, 26.1134915 ], [ 91.7174918, 26.1133836 ], [ 91.7170798, 26.1133374 ], [ 91.7169695, 26.1132465 ], [ 91.7169437, 26.113154 ], [ 91.7170038, 26.1129999 ], [ 91.7169695, 26.1128766 ], [ 91.7168836, 26.1128072 ], [ 91.7164888, 26.1129151 ], [ 91.7163, 26.1129922 ], [ 91.7161627, 26.1129614 ], [ 91.715991, 26.1127687 ], [ 91.7158022, 26.112761 ], [ 91.7155275, 26.112892 ], [ 91.7152529, 26.1129537 ], [ 91.7149868, 26.1132234 ], [ 91.7148237, 26.1132928 ], [ 91.714652, 26.1132465 ], [ 91.7144375, 26.1131386 ], [ 91.7143516, 26.1130307 ], [ 91.7142658, 26.1126685 ], [ 91.71418, 26.1125914 ], [ 91.7139311, 26.1125606 ], [ 91.7139053, 26.1125298 ], [ 91.7136923, 26.1120905 ], [ 91.7136736, 26.1120519 ], [ 91.713253, 26.1117514 ], [ 91.7130213, 26.11142 ], [ 91.7129612, 26.1112119 ], [ 91.7128238, 26.1111348 ], [ 91.7125835, 26.1111117 ], [ 91.7124548, 26.1110577 ], [ 91.7123346, 26.1109575 ], [ 91.7122402, 26.1109344 ], [ 91.7120342, 26.111104 ], [ 91.7118969, 26.1111348 ], [ 91.7117424, 26.1112042 ], [ 91.7116737, 26.1112042 ], [ 91.7111845, 26.1109113 ], [ 91.7110042, 26.1108727 ], [ 91.7107639, 26.110788 ], [ 91.7105923, 26.1107032 ], [ 91.7105064, 26.1107032 ], [ 91.7104206, 26.110734 ], [ 91.7102318, 26.1111348 ], [ 91.7101803, 26.1111964 ], [ 91.7100515, 26.1111964 ], [ 91.7098198, 26.1111194 ], [ 91.7097082, 26.1111194 ], [ 91.7094247, 26.1112406 ], [ 91.7091675, 26.1113506 ], [ 91.7087898, 26.1115664 ], [ 91.7085838, 26.1122446 ], [ 91.7085237, 26.1124142 ], [ 91.7083607, 26.1125144 ], [ 91.7078972, 26.11263 ] ] } },
{ "type": "Feature", "properties": { "element": "way", "id": 129101813, "name": null, "waterway": "drain" }, "geometry": { "type": "LineString", "coordinates": [ [ 91.7504151, 26.1782085 ], [ 91.7499445, 26.1781992 ], [ 91.7494768, 26.1780918 ], [ 91.7491871, 26.1781207 ], [ 91.7490583, 26.178034 ], [ 91.7490476, 26.1778126 ], [ 91.7490369, 26.1776393 ], [ 91.748715, 26.1773889 ], [ 91.7482322, 26.1763105 ], [ 91.7472828, 26.1747348 ], [ 91.7447204, 26.1714832 ], [ 91.7433291, 26.1700057 ], [ 91.7431113, 26.1697789 ], [ 91.743063, 26.1697404 ], [ 91.7429906, 26.1695502 ] ] } },
{ "type": "Feature", "properties": { "element": "way", "id": 497502656, "name": null, "waterway": "drain" }, "geometry": { "type": "LineString", "coordinates": [ [ 91.7361966, 26.1482295 ], [ 91.7366825, 26.1496141 ], [ 91.7367855, 26.1502767 ], [ 91.7371546, 26.1516635 ], [ 91.7373691, 26.1523261 ], [ 91.7373852, 26.1523588 ], [ 91.7376181, 26.1527807 ], [ 91.7379871, 26.153605 ], [ 91.738236, 26.1541983 ], [ 91.7386051, 26.1552229 ], [ 91.7393003, 26.1572337 ], [ 91.7393003, 26.1579502 ], [ 91.7392832, 26.1582121 ], [ 91.7391716, 26.1583585 ], [ 91.7387339, 26.1585588 ], [ 91.7385708, 26.1586589 ], [ 91.7385113, 26.15877 ], [ 91.738514, 26.1588976 ], [ 91.7385891, 26.1594898 ], [ 91.7385837, 26.1596391 ] ] } },
{ "type": "Feature", "properties": { "element": "way", "id": 497502661, "name": null, "waterway": "drain" }, "geometry": { "type": "LineString", "coordinates": [ [ 91.7377032, 26.1621102 ], [ 91.7380129, 26.1629808 ], [ 91.7382397, 26.1634818 ], [ 91.7384592, 26.1639668 ], [ 91.7387081, 26.1644368 ], [ 91.7390525, 26.1650151 ], [ 91.7392571, 26.165629 ], [ 91.7392278, 26.1660239 ] ] } },
{ "type": "Feature", "properties": { "element": "way", "id": 497502663, "name": null, "waterway": "drain" }, "geometry": { "type": "LineString", "coordinates": [ [ 91.7385837, 26.1596391 ], [ 91.738514, 26.1597715 ] ] } },
{ "type": "Feature", "properties": { "element": "way", "id": 497520973, "name": null, "waterway": "drain" }, "geometry": { "type": "LineString", "coordinates": [ [ 91.7428833, 26.169401 ], [ 91.7426634, 26.1692228 ], [ 91.7425454, 26.1690062 ], [ 91.7424725, 26.1688385 ] ] } },
{ "type": "Feature", "properties": { "element": "way", "id": 497520974, "name": null, "waterway": "drain" }, "geometry": { "type": "LineString", "coordinates": [ [ 91.7429906, 26.1695502 ], [ 91.7428833, 26.169401 ] ] } },
{ "type": "Feature", "properties": { "element": "way", "id": 497520975, "name": null, "waterway": "drain" }, "geometry": { "type": "LineString", "coordinates": [ [ 91.7533842, 26.1796675 ], [ 91.7525069, 26.1788115 ], [ 91.7521075, 26.1783963 ], [ 91.7516789, 26.1782783 ], [ 91.7510847, 26.1781821 ], [ 91.7504151, 26.1782085 ] ] } },
{ "type": "Feature", "properties": { "element": "way", "id": 497520976, "name": null, "waterway": "drain" }, "geometry": { "type": "LineString", "coordinates": [ [ 91.756335, 26.184795 ], [ 91.7561706, 26.184028 ], [ 91.7559406, 26.1835758 ], [ 91.7552977, 26.1830775 ], [ 91.7551295, 26.1829362 ], [ 91.7549629, 26.1825779 ] ] } },
{ "type": "Feature", "properties": { "element": "way", "id": 497520987, "name": null, "waterway": "river" }, "geometry": { "type": "LineString", "coordinates": [ [ 91.7373038, 26.16762 ], [ 91.7370817, 26.1676653 ], [ 91.7368725, 26.1677496 ], [ 91.7365828, 26.1679036 ], [ 91.7363951, 26.1679229 ], [ 91.7358345, 26.1678314 ], [ 91.7355502, 26.1678049 ], [ 91.7352149, 26.1678483 ], [ 91.7349172, 26.1678651 ], [ 91.7347079, 26.167817 ], [ 91.7339838, 26.1675425 ], [ 91.7338362, 26.1675233 ], [ 91.7332488, 26.1676051 ], [ 91.7328814, 26.1676051 ], [ 91.7323181, 26.1675594 ], [ 91.7316985, 26.1673716 ], [ 91.7314222, 26.1672103 ], [ 91.7312613, 26.1672007 ], [ 91.7311782, 26.1672296 ], [ 91.7311406, 26.1673307 ], [ 91.7312238, 26.1675859 ], [ 91.7312747, 26.1679229 ], [ 91.7309904, 26.1699402 ], [ 91.7305881, 26.1724822 ], [ 91.7303306, 26.1737532 ], [ 91.7290098, 26.1759494 ], [ 91.7241828, 26.1839753 ] ] } },
{ "type": "Feature", "properties": { "element": "way", "id": 497520994, "name": null, "waterway": "stream" }, "geometry": { "type": "LineString", "coordinates": [ [ 91.7653549, 26.1676918 ], [ 91.7645556, 26.1669479 ], [ 91.7643785, 26.1668757 ], [ 91.764223, 26.1668781 ], [ 91.763362, 26.167037 ], [ 91.7619243, 26.1671574 ], [ 91.7609829, 26.1671212 ], [ 91.760653, 26.1671333 ], [ 91.7592287, 26.1673114 ], [ 91.7584965, 26.1674053 ], [ 91.7569166, 26.1674775 ], [ 91.7567047, 26.1674607 ], [ 91.7565519, 26.1674511 ], [ 91.7564312, 26.1674799 ], [ 91.7560557, 26.1675786 ], [ 91.7548084, 26.1676244 ], [ 91.753993, 26.1677568 ], [ 91.7537034, 26.1677833 ], [ 91.7530864, 26.1677784 ], [ 91.752491, 26.1678458 ], [ 91.7519063, 26.1679855 ], [ 91.7513886, 26.168024 ], [ 91.7511794, 26.1679879 ], [ 91.7505813, 26.168024 ], [ 91.7502353, 26.1680144 ], [ 91.7495164, 26.1681203 ], [ 91.7489907, 26.168166 ], [ 91.748457, 26.1682455 ], [ 91.7479742, 26.1682695 ], [ 91.7476845, 26.1682406 ], [ 91.747494, 26.1682623 ], [ 91.7470998, 26.1683923 ], [ 91.746904, 26.1684236 ], [ 91.7465821, 26.1683827 ], [ 91.7463568, 26.1684043 ], [ 91.7453697, 26.168503 ], [ 91.7448387, 26.1685199 ], [ 91.7438167, 26.1686427 ], [ 91.7437255, 26.1686378 ], [ 91.7434251, 26.1686017 ], [ 91.7432106, 26.1686234 ], [ 91.7428109, 26.1687558 ], [ 91.7424725, 26.1688385 ] ] } },
{ "type": "Feature", "properties": { "element": "way", "id": 497520995, "name": null, "waterway": "stream" }, "geometry": { "type": "LineString", "coordinates": [ [ 91.7655775, 26.1679373 ], [ 91.7653549, 26.1676918 ] ] } },
{ "type": "Feature", "properties": { "element": "way", "id": 497520996, "name": null, "waterway": "stream" }, "geometry": { "type": "LineString", "coordinates": [ [ 91.7690563, 26.1670129 ], [ 91.7682275, 26.1672898 ], [ 91.7676133, 26.1675473 ], [ 91.7670634, 26.1677279 ], [ 91.7664304, 26.1680384 ], [ 91.7660335, 26.1682286 ], [ 91.7659208, 26.168231 ], [ 91.7657948, 26.1681973 ], [ 91.7655775, 26.1679373 ] ] } },
{ "type": "Feature", "properties": { "element": "way", "id": 517462562, "name": null, "waterway": "river" }, "geometry": { "type": "LineString", "coordinates": [ [ 91.6380024, 26.1228138 ], [ 91.6376426, 26.1232281 ], [ 91.6375022, 26.1233405 ], [ 91.6371327, 26.1235947 ], [ 91.6369587, 26.1237383 ], [ 91.6368688, 26.1239564 ], [ 91.6368466, 26.1242771 ], [ 91.6368232, 26.1244931 ], [ 91.6367416, 26.1246734 ], [ 91.6366996, 26.1247845 ], [ 91.6366505, 26.1249501 ], [ 91.6366574, 26.1252374 ], [ 91.6367275, 26.1255811 ], [ 91.6367999, 26.1257561 ], [ 91.6368069, 26.125906 ], [ 91.6368373, 26.126144 ], [ 91.6368397, 26.1264679 ], [ 91.636821, 26.1265989 ], [ 91.6367789, 26.1267216 ], [ 91.6365828, 26.127036 ], [ 91.6364193, 26.1273253 ], [ 91.6365268, 26.1274637 ], [ 91.6369096, 26.1276775 ], [ 91.637442, 26.1279165 ], [ 91.6378951, 26.1281219 ], [ 91.638278, 26.1283483 ], [ 91.6385815, 26.1285957 ], [ 91.6386726, 26.1287907 ], [ 91.6387356, 26.1289689 ], [ 91.6387356, 26.1295726 ], [ 91.6388851, 26.1299919 ], [ 91.6390452, 26.1302912 ], [ 91.6391035, 26.130461 ], [ 91.6391152, 26.1305972 ], [ 91.6390141, 26.130682 ], [ 91.6389762, 26.1307591 ], [ 91.6388786, 26.1309012 ], [ 91.6388957, 26.1312131 ], [ 91.6390433, 26.1313605 ], [ 91.6391166, 26.1315171 ], [ 91.6391083, 26.1317193 ], [ 91.6389898, 26.1319323 ], [ 91.6389192, 26.1321223 ], [ 91.638859, 26.1323179 ], [ 91.6386077, 26.132418 ], [ 91.638609, 26.1325975 ], [ 91.638863, 26.1327439 ], [ 91.6390405, 26.133029 ], [ 91.6393207, 26.1332889 ], [ 91.6396195, 26.1334734 ], [ 91.6394701, 26.1338759 ], [ 91.6392086, 26.13427 ], [ 91.6390311, 26.1345718 ], [ 91.6392459, 26.1347898 ], [ 91.6394608, 26.1348988 ], [ 91.6396382, 26.1350833 ], [ 91.6397596, 26.1353516 ], [ 91.6400585, 26.135402 ], [ 91.640292, 26.13562 ], [ 91.6403294, 26.1358212 ], [ 91.6399184, 26.1360895 ], [ 91.6397503, 26.1362405 ], [ 91.6392926, 26.1367603 ], [ 91.638891, 26.1371796 ], [ 91.6386762, 26.137624 ], [ 91.6386295, 26.1379426 ], [ 91.6384427, 26.1381438 ], [ 91.6380878, 26.1381187 ], [ 91.6377982, 26.1380935 ], [ 91.6376301, 26.1383954 ], [ 91.6369365, 26.1394241 ], [ 91.6367148, 26.1397034 ], [ 91.6364159, 26.1397202 ], [ 91.6359956, 26.1396447 ], [ 91.6357902, 26.1395273 ], [ 91.635594, 26.1394015 ], [ 91.6354539, 26.1391165 ], [ 91.6352578, 26.1389404 ], [ 91.6350243, 26.1389152 ], [ 91.6348375, 26.1390745 ], [ 91.6348095, 26.1394015 ], [ 91.6349496, 26.1400136 ], [ 91.6350056, 26.1404245 ], [ 91.6349029, 26.140785 ], [ 91.6350149, 26.1412294 ], [ 91.635043, 26.1416235 ], [ 91.6349682, 26.1419924 ], [ 91.6353045, 26.1423278 ], [ 91.6358555, 26.1428979 ], [ 91.6361077, 26.1431495 ], [ 91.6364159, 26.1433088 ], [ 91.6365934, 26.1434262 ], [ 91.6367148, 26.1437951 ], [ 91.6369016, 26.143946 ], [ 91.6372098, 26.1441472 ], [ 91.6373499, 26.1443401 ], [ 91.6374433, 26.1446251 ], [ 91.6375554, 26.1450108 ], [ 91.6379197, 26.1453797 ], [ 91.6382185, 26.1455809 ], [ 91.6384707, 26.1458157 ], [ 91.6390591, 26.1463774 ], [ 91.6396756, 26.1470146 ], [ 91.64032, 26.1477105 ], [ 91.6410112, 26.1485741 ], [ 91.6414782, 26.1491358 ], [ 91.6418518, 26.1496724 ], [ 91.6425803, 26.1506282 ], [ 91.6429819, 26.1511228 ], [ 91.6432902, 26.1515756 ], [ 91.6436638, 26.1521037 ], [ 91.6439253, 26.1526738 ], [ 91.6440467, 26.1530763 ], [ 91.6442242, 26.1533026 ], [ 91.6444296, 26.1534032 ], [ 91.6445604, 26.153529 ], [ 91.6447824, 26.1536958 ] ] } },
{ "type": "Feature", "properties": { "element": "way", "id": 517472468, "name": "Pamuhi", "waterway": "river" }, "geometry": { "type": "LineString", "coordinates": [ [ 91.6844158, 26.1050416 ], [ 91.6842428, 26.1055218 ], [ 91.6838677, 26.1055062 ], [ 91.6833529, 26.1052398 ], [ 91.6827945, 26.1052868 ], [ 91.6823496, 26.1054983 ], [ 91.6820704, 26.1057882 ], [ 91.681957, 26.1061878 ], [ 91.6816865, 26.1062583 ], [ 91.681102, 26.1064385 ], [ 91.6810234, 26.1065717 ], [ 91.6810583, 26.1069086 ], [ 91.681006, 26.1073316 ], [ 91.6806134, 26.1077312 ], [ 91.680561, 26.1082874 ], [ 91.6804476, 26.1086713 ], [ 91.6798107, 26.1089298 ], [ 91.6793745, 26.109157 ], [ 91.6781443, 26.1095566 ], [ 91.677534, 26.1098235 ], [ 91.6768007, 26.1101442 ], [ 91.6758846, 26.110387 ], [ 91.6753348, 26.1105637 ], [ 91.6750558, 26.1106534 ], [ 91.6746108, 26.1108179 ], [ 91.6743666, 26.1111391 ], [ 91.6743478, 26.1112505 ], [ 91.6743229, 26.1113976 ], [ 91.6744276, 26.1121654 ], [ 91.6738693, 26.1127451 ], [ 91.6734592, 26.1132465 ], [ 91.6730491, 26.1134737 ], [ 91.6726042, 26.113693 ], [ 91.6724384, 26.1138654 ], [ 91.6721658, 26.1140482 ] ] } },
{ "type": "Feature", "properties": { "element": "way", "id": 517474925, "name": null, "waterway": "stream" }, "geometry": { "type": "LineString", "coordinates": [ [ 91.7070217, 26.1028011 ], [ 91.7072006, 26.1032538 ], [ 91.7072656, 26.1038964 ], [ 91.7071708, 26.1042463 ], [ 91.7070859, 26.1044243 ], [ 91.7070045, 26.1045037 ], [ 91.7068629, 26.1045927 ], [ 91.7067072, 26.1047103 ], [ 91.706555, 26.1048883 ], [ 91.7063674, 26.104901 ], [ 91.706155, 26.1049233 ], [ 91.705702, 26.1050218 ], [ 91.7055498, 26.1050981 ], [ 91.7053517, 26.105257 ], [ 91.7052844, 26.1053364 ], [ 91.7052101, 26.1055716 ], [ 91.7051428, 26.1056669 ], [ 91.7050614, 26.1057273 ], [ 91.7049836, 26.1057369 ], [ 91.7048562, 26.1058036 ], [ 91.7047641, 26.1058513 ], [ 91.7046934, 26.1059085 ], [ 91.7045978, 26.1059275 ], [ 91.7045093, 26.1060896 ], [ 91.704435, 26.1062263 ], [ 91.7044102, 26.1063439 ], [ 91.7043678, 26.1064805 ], [ 91.7042687, 26.1066045 ], [ 91.7041377, 26.1066553 ], [ 91.7040775, 26.106738 ], [ 91.7040032, 26.1068683 ], [ 91.7038793, 26.1072465 ], [ 91.7037732, 26.1075261 ], [ 91.7037236, 26.1076501 ], [ 91.7036635, 26.1078376 ], [ 91.7036705, 26.1079425 ], [ 91.7037059, 26.1080219 ], [ 91.7037201, 26.1081745 ], [ 91.7037165, 26.1083683 ], [ 91.703713, 26.1084986 ], [ 91.7037732, 26.1087211 ], [ 91.7037626, 26.1089054 ], [ 91.7037732, 26.1092042 ], [ 91.703729, 26.1093862 ], [ 91.7033557, 26.1094568 ], [ 91.7028568, 26.1096205 ], [ 91.7025671, 26.1097121 ], [ 91.7023579, 26.1097458 ], [ 91.7019127, 26.1098421 ], [ 91.701564, 26.1099818 ], [ 91.7012958, 26.1100589 ], [ 91.701108, 26.1101408 ], [ 91.7010275, 26.1102997 ], [ 91.7010597, 26.1104635 ], [ 91.7011885, 26.1106273 ], [ 91.701285, 26.1107381 ], [ 91.7013203, 26.1108615 ] ] } },
{ "type": "Feature", "properties": { "element": "way", "id": 517931628, "name": null, "waterway": "river" }, "geometry": { "type": "LineString", "coordinates": [ [ 91.6659005, 26.1366385 ], [ 91.6656703, 26.1366575 ] ] } },
{ "type": "Feature", "properties": { "element": "way", "id": 517988998, "name": null, "waterway": "drain" }, "geometry": { "type": "LineString", "coordinates": [ [ 91.6937762, 26.1575462 ], [ 91.6932666, 26.1576954 ], [ 91.6930064, 26.1577797 ], [ 91.6926229, 26.1579121 ], [ 91.6924405, 26.1579362 ], [ 91.6921616, 26.1579578 ], [ 91.6920301, 26.1579314 ], [ 91.6919141, 26.1578928 ], [ 91.6917148, 26.1576967 ], [ 91.6915246, 26.1575333 ], [ 91.6912308, 26.1573536 ], [ 91.6909546, 26.1572524 ], [ 91.6907936, 26.1572139 ], [ 91.6901874, 26.1571561 ], [ 91.689584, 26.1571152 ], [ 91.6891843, 26.1570863 ], [ 91.6885996, 26.1570743 ], [ 91.6878727, 26.1570069 ], [ 91.6872397, 26.1569491 ], [ 91.6863975, 26.1569226 ], [ 91.6859335, 26.1569202 ], [ 91.6852012, 26.1568961 ], [ 91.684897, 26.1569064 ] ] } },
{ "type": "Feature", "properties": { "element": "way", "id": 517988999, "name": null, "waterway": "drain" }, "geometry": { "type": "LineString", "coordinates": [ [ 91.6836492, 26.1572653 ], [ 91.6844505, 26.1573235 ], [ 91.6844687, 26.1572785 ], [ 91.6848332, 26.157303 ], [ 91.684897, 26.1569064 ] ] } },
{ "type": "Feature", "properties": { "element": "way", "id": 517989000, "name": null, "waterway": "drain" }, "geometry": { "type": "LineString", "coordinates": [ [ 91.684897, 26.1569064 ], [ 91.68497, 26.1561464 ] ] } },
{ "type": "Feature", "properties": { "element": "way", "id": 517989003, "name": null, "waterway": "drain" }, "geometry": { "type": "LineString", "coordinates": [ [ 91.7010688, 26.15598 ], [ 91.7001247, 26.1561004 ], [ 91.6997062, 26.1561822 ], [ 91.6993629, 26.1562593 ], [ 91.6986602, 26.1563989 ], [ 91.6980325, 26.1565193 ], [ 91.6973405, 26.1566397 ], [ 91.6972815, 26.1564808 ], [ 91.6972332, 26.1557633 ], [ 91.6971742, 26.1551711 ], [ 91.6970991, 26.1544873 ], [ 91.6970669, 26.1541815 ], [ 91.6970511, 26.1540666 ] ] } },
{ "type": "Feature", "properties": { "element": "way", "id": 517989005, "name": null, "waterway": "drain" }, "geometry": { "type": "LineString", "coordinates": [ [ 91.6994176, 26.1537826 ], [ 91.6981931, 26.1538302 ], [ 91.6973401, 26.1538715 ], [ 91.6969296, 26.1538969 ], [ 91.6965898, 26.1539208 ], [ 91.6964549, 26.1539209 ] ] } },
{ "type": "Feature", "properties": { "element": "way", "id": 517989006, "name": null, "waterway": "drain" }, "geometry": { "type": "LineString", "coordinates": [ [ 91.6970511, 26.1540666 ], [ 91.6966924, 26.1540812 ], [ 91.6965969, 26.1540875 ], [ 91.6965898, 26.1539208 ] ] } },
{ "type": "Feature", "properties": { "element": "way", "id": 517989007, "name": null, "waterway": "drain" }, "geometry": { "type": "LineString", "coordinates": [ [ 91.6960601, 26.1529065 ], [ 91.6960142, 26.1529114 ], [ 91.6956971, 26.1528859 ], [ 91.6953109, 26.1529333 ], [ 91.6943393, 26.1531012 ], [ 91.6939774, 26.1531778 ], [ 91.6935831, 26.1532508 ], [ 91.6935221, 26.153342 ], [ 91.6934327, 26.153561 ] ] } },
{ "type": "Feature", "properties": { "element": "way", "id": 517989008, "name": null, "waterway": "drain" }, "geometry": { "type": "LineString", "coordinates": [ [ 91.7034574, 26.1537824 ], [ 91.7030168, 26.1537188 ], [ 91.7026995, 26.1536995 ], [ 91.7024869, 26.1536856 ], [ 91.7023575, 26.1536856 ], [ 91.7022115, 26.1536878 ], [ 91.7019878, 26.1536912 ], [ 91.7016689, 26.1536953 ], [ 91.7015626, 26.1536967 ], [ 91.7011959, 26.1537105 ], [ 91.7011385, 26.1537143 ], [ 91.7008231, 26.1537354 ], [ 91.7003363, 26.1537465 ], [ 91.7001171, 26.1537631 ], [ 91.6999666, 26.1537686 ], [ 91.6996862, 26.1537824 ], [ 91.699474, 26.1537825 ], [ 91.6994176, 26.1537826 ] ] } },
{ "type": "Feature", "properties": { "element": "way", "id": 517989009, "name": null, "waterway": "drain" }, "geometry": { "type": "LineString", "coordinates": [ [ 91.6964104, 26.156042 ], [ 91.6963264, 26.1557276 ], [ 91.696289, 26.1556228 ], [ 91.6956165, 26.1557947 ], [ 91.6951472, 26.1559141 ], [ 91.6951028, 26.1559037 ], [ 91.6950048, 26.1559204 ], [ 91.6946405, 26.1559833 ], [ 91.6944233, 26.1560106 ], [ 91.6942342, 26.1560441 ] ] } },
{ "type": "Feature", "properties": { "element": "way", "id": 517989010, "name": null, "waterway": "drain" }, "geometry": { "type": "LineString", "coordinates": [ [ 91.6989424, 26.1507866 ], [ 91.6985374, 26.1506421 ], [ 91.6978481, 26.1504663 ], [ 91.6973223, 26.1503749 ], [ 91.6969039, 26.1503532 ], [ 91.6965767, 26.1503315 ], [ 91.6964882, 26.1503363 ], [ 91.6964184, 26.150358 ], [ 91.6963675, 26.1503845 ], [ 91.6960966, 26.1506614 ], [ 91.6960912, 26.1507023 ], [ 91.6960993, 26.1508371 ], [ 91.6961024, 26.1509209 ], [ 91.6961341, 26.151248 ], [ 91.6961609, 26.1518306 ], [ 91.6961752, 26.1519797 ], [ 91.6962039, 26.1522784 ], [ 91.6962947, 26.1528786 ] ] } },
{ "type": "Feature", "properties": { "element": "way", "id": 518578208, "name": null, "waterway": "river" }, "geometry": { "type": "LineString", "coordinates": [ [ 91.7136923, 26.1120905 ], [ 91.713411, 26.112154 ], [ 91.7130695, 26.1122744 ], [ 91.7128784, 26.1124205 ], [ 91.712728, 26.1125555 ], [ 91.7126914, 26.1126322 ], [ 91.712476, 26.1126322 ], [ 91.7121223, 26.1126322 ], [ 91.7117645, 26.1126139 ], [ 91.7114555, 26.1125081 ], [ 91.7113783, 26.112457 ], [ 91.7113051, 26.1123036 ], [ 91.7112401, 26.1121394 ], [ 91.711114, 26.1120079 ], [ 91.7108213, 26.1118437 ], [ 91.710679, 26.1118035 ], [ 91.7104351, 26.1117634 ], [ 91.7102481, 26.111694 ], [ 91.7099798, 26.1115297 ], [ 91.7097724, 26.1114202 ], [ 91.7095976, 26.1113289 ], [ 91.7094247, 26.1112406 ] ] } },
{ "type": "Feature", "properties": { "element": "way", "id": 543491499, "name": null, "waterway": "drain" }, "geometry": { "type": "LineString", "coordinates": [ [ 91.689151, 26.1696805 ], [ 91.6889528, 26.1698679 ], [ 91.688967, 26.1702301 ], [ 91.6887617, 26.1704302 ], [ 91.6886838, 26.170481 ], [ 91.6884856, 26.1705636 ], [ 91.6884326, 26.1706779 ], [ 91.688337, 26.1707986 ], [ 91.6881707, 26.1709416 ], [ 91.6879017, 26.171021 ], [ 91.6877035, 26.1708971 ], [ 91.6876822, 26.1710893 ], [ 91.6875761, 26.1711472 ], [ 91.6875194, 26.171129 ], [ 91.6874274, 26.1711988 ], [ 91.6874274, 26.1713227 ], [ 91.6873354, 26.1714133 ], [ 91.6872717, 26.1715038 ], [ 91.6872682, 26.1716022 ], [ 91.6871803, 26.1722974 ], [ 91.6865411, 26.1773523 ] ] } },
{ "type": "Feature", "properties": { "element": "way", "id": 570473495, "name": null, "waterway": "canal" }, "geometry": { "type": "LineString", "coordinates": [ [ 91.6687917, 26.140013 ], [ 91.6689533, 26.1397878 ] ] } },
{ "type": "Feature", "properties": { "element": "way", "id": 570473496, "name": null, "waterway": "canal" }, "geometry": { "type": "LineString", "coordinates": [ [ 91.6686812, 26.1394216 ], [ 91.6685164, 26.1393252 ] ] } },
{ "type": "Feature", "properties": { "element": "way", "id": 585129873, "name": null, "waterway": "stream" }, "geometry": { "type": "LineString", "coordinates": [ [ 91.7952902, 26.2032102 ], [ 91.7959569, 26.2036223 ], [ 91.7962131, 26.2037865 ], [ 91.7962944, 26.2039506 ], [ 91.7966481, 26.2043373 ], [ 91.7967497, 26.2044285 ], [ 91.7969286, 26.2044321 ], [ 91.7971969, 26.2045124 ], [ 91.7972237, 26.2045563 ], [ 91.7972416, 26.2045999 ], [ 91.7972416, 26.2046729 ], [ 91.7973595, 26.2047312 ], [ 91.7973555, 26.2048917 ], [ 91.7974449, 26.2049939 ], [ 91.7975913, 26.2050814 ], [ 91.7978271, 26.2053294 ], [ 91.7979206, 26.2055009 ], [ 91.7978758, 26.2056504 ], [ 91.7979816, 26.2057817 ], [ 91.7979165, 26.2059167 ], [ 91.7979246, 26.2060517 ], [ 91.797819, 26.2065476 ], [ 91.7978109, 26.2066059 ], [ 91.7977895, 26.2066956 ], [ 91.7977653, 26.2067437 ], [ 91.7977117, 26.2067642 ], [ 91.7976125, 26.206769 ], [ 91.797296, 26.2067317 ], [ 91.7971806, 26.206698 ], [ 91.7968239, 26.2065825 ], [ 91.7966831, 26.20655 ], [ 91.7964886, 26.2065392 ], [ 91.7960662, 26.2065295 ], [ 91.7947411, 26.2065536 ], [ 91.7932284, 26.2065055 ], [ 91.7926115, 26.2064862 ], [ 91.7920697, 26.20639 ], [ 91.7915869, 26.2062359 ], [ 91.7910558, 26.2060145 ], [ 91.7902619, 26.2056488 ], [ 91.7896932, 26.2053118 ], [ 91.7883468, 26.2045321 ], [ 91.7866409, 26.2037717 ], [ 91.7861259, 26.2035021 ], [ 91.7847526, 26.2027465 ], [ 91.7846104, 26.2026935 ], [ 91.7844951, 26.2026839 ], [ 91.7843878, 26.20272 ], [ 91.7842698, 26.2028138 ], [ 91.7841679, 26.2029751 ], [ 91.7839318, 26.2034925 ], [ 91.7837548, 26.2042722 ], [ 91.7837763, 26.2048883 ], [ 91.7839265, 26.2057932 ], [ 91.7846775, 26.2092008 ], [ 91.7848921, 26.2109334 ], [ 91.784892, 26.212589 ], [ 91.7845917, 26.214129 ], [ 91.7840552, 26.2155151 ], [ 91.7827463, 26.2171899 ], [ 91.7782033, 26.2216552 ] ] } },
{ "type": "Feature", "properties": { "element": "way", "id": 585162104, "name": null, "waterway": "stream" }, "geometry": { "type": "LineString", "coordinates": [ [ 91.7028334, 26.1140567 ], [ 91.7026425, 26.1136509 ], [ 91.7025854, 26.113511 ], [ 91.7025854, 26.1133416 ], [ 91.702524, 26.1131209 ], [ 91.7024933, 26.1129731 ], [ 91.7025481, 26.1128431 ], [ 91.7025503, 26.1127466 ], [ 91.7025108, 26.1126244 ], [ 91.7024033, 26.1124806 ], [ 91.7022805, 26.1123132 ], [ 91.7021642, 26.1121299 ], [ 91.7021049, 26.1120472 ], [ 91.7020545, 26.1119526 ], [ 91.7020018, 26.1118975 ], [ 91.7019245, 26.1117932 ] ] } },
{ "type": "Feature", "properties": { "element": "way", "id": 1266688604, "name": null, "waterway": "drain" }, "geometry": { "type": "LineString", "coordinates": [ [ 91.7392205, 26.1661231 ], [ 91.7392199, 26.1661312 ], [ 91.738885, 26.1663731 ], [ 91.7384758, 26.1669312 ], [ 91.738141, 26.1668009 ], [ 91.7375271, 26.1674706 ], [ 91.7373038, 26.16762 ] ] } },
{ "type": "Feature", "properties": { "element": "way", "id": 1266688605, "name": null, "waterway": "drain" }, "geometry": { "type": "LineString", "coordinates": [ [ 91.7392278, 26.1660239 ], [ 91.7392205, 26.1661231 ] ] } },
{ "type": "Feature", "properties": { "element": "way", "id": 1266688608, "name": null, "waterway": "drain" }, "geometry": { "type": "LineString", "coordinates": [ [ 91.738514, 26.1597715 ], [ 91.7382404, 26.1599304 ], [ 91.7374206, 26.1601843 ], [ 91.7372061, 26.1603692 ], [ 91.7371031, 26.1606003 ], [ 91.7371202, 26.1608083 ], [ 91.7374121, 26.1612474 ], [ 91.737558, 26.161702 ], [ 91.7376696, 26.1620157 ] ] } },
{ "type": "Feature", "properties": { "element": "way", "id": 1266688609, "name": null, "waterway": "drain" }, "geometry": { "type": "LineString", "coordinates": [ [ 91.7376696, 26.1620157 ], [ 91.7377032, 26.1621102 ] ] } },
{ "type": "Feature", "properties": { "element": "way", "id": 1267021900, "name": null, "waterway": "drain" }, "geometry": { "type": "LineString", "coordinates": [ [ 91.7540328, 26.1805705 ], [ 91.7538348, 26.180262 ], [ 91.7536926, 26.1799515 ], [ 91.7533842, 26.1796675 ] ] } },
{ "type": "Feature", "properties": { "element": "way", "id": 1267021901, "name": null, "waterway": "drain" }, "geometry": { "type": "LineString", "coordinates": [ [ 91.7540879, 26.1806564 ], [ 91.7540328, 26.1805705 ] ] } },
{ "type": "Feature", "properties": { "element": "way", "id": 1303627059, "name": null, "waterway": "drain" }, "geometry": { "type": "LineString", "coordinates": [ [ 91.6961794, 26.1528938 ], [ 91.6960601, 26.1529065 ] ] } },
{ "type": "Feature", "properties": { "element": "way", "id": 1303627060, "name": null, "waterway": "drain" }, "geometry": { "type": "LineString", "coordinates": [ [ 91.6962947, 26.1528786 ], [ 91.696185, 26.1528932 ], [ 91.6961794, 26.1528938 ] ] } },
{ "type": "Feature", "properties": { "element": "way", "id": 1304574997, "name": null, "waterway": "river" }, "geometry": { "type": "LineString", "coordinates": [ [ 91.7424725, 26.1688385 ], [ 91.7423764, 26.1688039 ], [ 91.7422959, 26.1687221 ], [ 91.7422798, 26.1686595 ], [ 91.7423603, 26.1684958 ], [ 91.7423844, 26.1683755 ], [ 91.7423388, 26.1676244 ], [ 91.7422825, 26.1675329 ], [ 91.7422101, 26.1674823 ], [ 91.7420948, 26.1674775 ], [ 91.7418614, 26.1675498 ], [ 91.7413223, 26.1675257 ], [ 91.7402869, 26.1676003 ], [ 91.7391363, 26.1676942 ], [ 91.7386159, 26.1677038 ], [ 91.7384469, 26.1676581 ], [ 91.7382565, 26.1676509 ], [ 91.7377925, 26.1677038 ], [ 91.737476, 26.1676701 ], [ 91.7373038, 26.16762 ] ] } },
{ "type": "Feature", "properties": { "element": "way", "id": 1318071767, "name": null, "waterway": "drain" }, "geometry": { "type": "LineString", "coordinates": [ [ 91.7563584, 26.1852013 ], [ 91.756335, 26.184795 ] ] } },
{ "type": "Feature", "properties": { "element": "way", "id": 1318071768, "name": null, "waterway": "drain" }, "geometry": { "type": "LineString", "coordinates": [ [ 91.756427, 26.1865745 ], [ 91.7563584, 26.1852013 ] ] } },
{ "type": "Feature", "properties": { "element": "way", "id": 1318071783, "name": null, "waterway": "drain" }, "geometry": { "type": "LineString", "coordinates": [ [ 91.7546669, 26.1815659 ], [ 91.7543626, 26.1810844 ], [ 91.7540879, 26.1806564 ] ] } },
{ "type": "Feature", "properties": { "element": "way", "id": 1318071784, "name": null, "waterway": "drain" }, "geometry": { "type": "LineString", "coordinates": [ [ 91.7549629, 26.1825779 ], [ 91.7546669, 26.1815659 ] ] } }
]
}
